ID,name,city,state,zip_code,email,phone
1,Photobean,Silver Spring,Maryland,20904,ghibbart0@umn.edu,202-459-7259
2,LiveZ,Lincoln,Nebraska,68524,ejuppe1@biblegateway.com,402-996-4928
3,Yodel,Savannah,Georgia,31405,rellcock2@gizmodo.com,912-822-3730
4,Npath,Washington,District of Columbia,20430,ltonkinson3@etsy.com,202-846-8172
5,Yakidoo,Atlanta,Georgia,30323,dnason4@eepurl.com,678-992-7907
6,Voonder,Harrisburg,Pennsylvania,17110,sarnfield5@tinypic.com,717-407-1759
7,Youfeed,Jamaica,New York,11436,chawke6@free.fr,917-229-0456
8,Skyble,Miami,Florida,33180,swyllie7@ebay.com,786-154-0149
9,Livetube,Saint Louis,Missouri,63136,vgowman8@hhs.gov,314-792-7418
10,Kwinu,Winston Salem,North Carolina,27150,fharvatt9@seesaa.net,336-154-3758
11,Riffpedia,Raleigh,North Carolina,27615,jeymera@reuters.com,919-683-4079
12,Quatz,Hartford,Connecticut,06145,tiveansb@gov.uk,860-758-3147
13,Fliptune,Oklahoma City,Oklahoma,73157,gslisbyc@virginia.edu,405-499-3344
14,Thoughtmix,New Haven,Connecticut,06533,wrickcordd@feedburner.com,203-489-9178
15,Trunyx,Richmond,Virginia,23203,bkhrishtafoviche@twitpic.com,804-928-0208
16,Babbleopia,Roanoke,Virginia,24024,mpulsterf@yellowpages.com,540-845-1749
17,Wordtune,El Paso,Texas,88525,cdobrowolskig@nyu.edu,915-894-3637
18,Babbleopia,Washington,District of Columbia,20231,hdevinnh@hugedomains.com,202-132-3050
19,Avamba,Washington,District of Columbia,20470,eghiriardellii@4shared.com,202-982-1756
20,Mynte,Memphis,Tennessee,38197,dourryj@ftc.gov,901-925-2569
21,Browsezoom,Louisville,Kentucky,40293,qridolfik@slideshare.net,502-844-6902
22,Quinu,Milwaukee,Wisconsin,53225,sholehousel@icio.us,414-899-3441
23,Blogtags,Colorado Springs,Colorado,80951,mdallam@guardian.co.uk,719-462-8762
24,Flipbug,Boston,Massachusetts,02203,tsoignen@blogspot.com,617-873-2545
25,Meemm,White Plains,New York,10633,bhellyaro@tuttocitta.it,914-665-5985
26,Quinu,Reno,Nevada,89550,jmcgrortyp@pagesperso-orange.fr,775-815-3850
27,Wikibox,Burbank,California,91520,chindenbergerq@gizmodo.com,661-387-8311
28,Npath,Saint Petersburg,Florida,33731,ssteder@umn.edu,727-307-6066
29,Centidel,Washington,District of Columbia,20546,mcarlissos@posterous.com,202-644-8056
30,Fiveclub,Ann Arbor,Michigan,48107,ncassellt@netlog.com,734-347-7188
31,Dabfeed,Pittsburgh,Pennsylvania,15286,zaaronsonu@stumbleupon.com,412-706-2808
32,Innotype,Colorado Springs,Colorado,80940,adurbinv@dot.gov,719-269-2093
33,Quire,Huntsville,Texas,77343,nvandrillw@elegantthemes.com,936-947-7414
34,Blogtag,Athens,Georgia,30605,rkisbeyx@pinterest.com,706-956-4151
35,Tanoodle,North Las Vegas,Nevada,89087,sbrissony@opera.com,702-399-0527
36,Zazio,Fresno,California,93794,bcorteneyz@harvard.edu,559-695-1750
37,Skynoodle,Memphis,Tennessee,38109,elemarie10@yelp.com,901-671-3305
38,Pixonyx,San Bernardino,California,92405,lsparey11@bloglovin.com,909-550-8875
39,Ntag,Minneapolis,Minnesota,55441,jstrover12@mail.ru,612-725-8911
40,Npath,Erie,Pennsylvania,16510,gnosworthy13@walmart.com,814-172-8732
41,Katz,West Palm Beach,Florida,33411,hverriour14@naver.com,561-368-1737
42,Feedbug,Los Angeles,California,90010,zruoss15@cafepress.com,213-527-4687
43,Rhynoodle,Omaha,Nebraska,68110,isircomb16@telegraph.co.uk,402-587-0372
44,Talane,Bellevue,Washington,98008,sboik17@who.int,425-726-2976
45,Fivespan,Flint,Michigan,48550,spickthall18@hugedomains.com,810-931-4040
46,Skyndu,New Castle,Pennsylvania,16107,rswait19@examiner.com,724-200-4863
47,Skimia,Grand Rapids,Michigan,49544,pturri1a@diigo.com,616-297-7495
48,Shuffletag,Philadelphia,Pennsylvania,19184,hzanettini1b@instagram.com,215-258-5096
49,Bubbletube,Lincoln,Nebraska,68510,jskaid1c@homestead.com,402-705-3983
50,Chatterpoint,Nashville,Tennessee,37215,rmercer1d@g.co,615-788-0489
51,Skyvu,Abilene,Texas,79605,saddess1e@stanford.edu,325-902-3229
52,Twitterlist,Houston,Texas,77075,mducker1f@netlog.com,832-226-5261
53,Pixope,Sacramento,California,94273,coyley1g@bigcartel.com,916-551-2408
54,Centizu,Philadelphia,Pennsylvania,19104,rrosenkrantz1h@google.cn,215-287-0490
55,Zoombeat,Montgomery,Alabama,36114,esuffe1i@technorati.com,334-202-7119
56,Trupe,Saint Cloud,Minnesota,56398,olambert1j@liveinternet.ru,320-809-9940
57,Yodel,Corpus Christi,Texas,78470,abiggin1k@dagondesign.com,361-904-7175
58,Skibox,Pittsburgh,Pennsylvania,15210,worsi1l@creativecommons.org,412-654-4936
59,Thoughtmix,New Orleans,Louisiana,70183,rnormanton1m@shareasale.com,504-386-4855
60,Zooveo,Monticello,Minnesota,55585,mcasley1n@storify.com,763-988-4037
61,Avamba,Nashville,Tennessee,37210,aduferie1o@census.gov,615-811-1004
62,Teklist,Indianapolis,Indiana,46207,ymardoll1p@flickr.com,317-898-6893
63,Yodel,El Paso,Texas,79905,lkauscher1q@washingtonpost.com,915-462-2327
64,Photobean,El Paso,Texas,88535,yspong1r@comcast.net,915-223-7201
65,Aivee,Bridgeport,Connecticut,06673,gbonwell1s@privacy.gov.au,203-404-2860
66,Zoozzy,Dallas,Texas,75372,gvasilic1t@latimes.com,214-478-0245
67,Zoonoodle,New York City,New York,10029,mdurham1u@geocities.com,212-527-0850
68,Skinix,New Haven,Connecticut,06510,emalitrott1v@fda.gov,203-211-4873
69,Flashpoint,Fort Worth,Texas,76192,onormand1w@godaddy.com,682-803-1475
70,Feedmix,El Paso,Texas,79999,lrenney1x@studiopress.com,915-222-6254
71,Leexo,Louisville,Kentucky,40233,ctaborre1y@constantcontact.com,502-924-0446
72,Jaloo,Philadelphia,Pennsylvania,19196,scolumbine1z@delicious.com,215-210-9720
73,Quire,Oxnard,California,93034,msenn20@macromedia.com,805-977-0185
74,Thoughtstorm,Monticello,Minnesota,55585,mmcinnery21@eventbrite.com,763-411-2745
75,Avamba,Brooksville,Florida,34605,zmaharg22@blogspot.com,352-381-8470
76,Avaveo,Athens,Georgia,30610,eturfin23@wordpress.org,706-517-0988
77,Tagcat,Milwaukee,Wisconsin,53263,dbonhan24@toplist.cz,414-246-5412
78,Avamm,Reston,Virginia,20195,cheathcoat25@ovh.net,703-171-9040
79,Divape,Tacoma,Washington,98405,fthynne26@mozilla.org,253-286-7737
80,Roombo,Richmond,Virginia,23285,lpietzner27@prnewswire.com,804-744-5455
81,Zoomlounge,Topeka,Kansas,66642,ismorthwaite28@cnet.com,785-591-0865
82,Kwimbee,Albuquerque,New Mexico,87115,granscomb29@deviantart.com,505-593-5662
83,Gigazoom,Fort Lauderdale,Florida,33305,zvallantine2a@youtube.com,954-861-2912
84,Quimm,Crawfordsville,Indiana,47937,fbaumford2b@feedburner.com,765-988-0239
85,Skimia,Colorado Springs,Colorado,80920,semps2c@meetup.com,719-218-9670
86,Quinu,Maple Plain,Minnesota,55572,clunn2d@theglobeandmail.com,763-984-6839
87,Bubbletube,Indianapolis,Indiana,46231,ttrayte2e@wp.com,317-908-6297
88,Quaxo,Washington,District of Columbia,20319,kbeernaert2f@ifeng.com,202-343-8043
89,Yodel,Washington,District of Columbia,20456,dtilmouth2g@ted.com,202-815-0213
90,Skipstorm,Austin,Texas,78783,vnuccii2h@japanpost.jp,512-999-5022
91,Mymm,New York City,New York,10184,apuleque2i@whitehouse.gov,212-719-2321
92,Quinu,New York City,New York,10099,bsouster2j@tmall.com,646-393-4949
93,Plajo,Pittsburgh,Pennsylvania,15274,fiiannone2k@mayoclinic.com,412-785-7680
94,Gevee,Fort Lauderdale,Florida,33355,llening2l@theguardian.com,754-617-0155
95,Youtags,Pittsburgh,Pennsylvania,15230,mbrands2m@oracle.com,412-772-5656
96,Tazz,Detroit,Michigan,48206,lillidge2n@cdbaby.com,734-335-7128
97,Yadel,Valley Forge,Pennsylvania,19495,khawtry2o@craigslist.org,484-784-6694
98,Topiclounge,Chicago,Illinois,60663,rvedenyapin2p@cbsnews.com,312-846-5581
99,Oyoloo,San Francisco,California,94164,pmacenzy2q@miibeian.gov.cn,415-475-1279
100,Wordtune,Corpus Christi,Texas,78405,bborley2r@biblegateway.com,361-344-9916
101,Wordtune,New Orleans,Louisiana,70179,jstaten2s@comcast.net,504-494-0262
102,Mymm,Milwaukee,Wisconsin,53263,hbutterly2t@ocn.ne.jp,414-919-2352
103,Quaxo,Fairbanks,Alaska,99790,dteffrey2u@vistaprint.com,907-967-3278
104,Quinu,Dayton,Ohio,45414,wgrundey2v@amazon.co.uk,937-989-4511
105,Edgepulse,Madison,Wisconsin,53785,rhumphris2w@bloglines.com,608-864-9741
106,InnoZ,Charleston,South Carolina,29403,mfransman2x@gnu.org,843-855-3202
107,Geba,Bismarck,North Dakota,58505,rgladdish2y@wikipedia.org,701-441-4969
108,Devpulse,Saint Cloud,Minnesota,56372,sstrawbridge2z@cocolog-nifty.com,320-447-4005
109,Brightdog,Dallas,Texas,75226,jgettings30@fda.gov,972-516-4700
110,Babbleblab,Jersey City,New Jersey,07310,yseydlitz31@businesswire.com,908-218-4076
111,Voonte,Oklahoma City,Oklahoma,73157,rmaryott32@1688.com,405-196-3863
112,Meezzy,Mesa,Arizona,85210,rduignan33@sourceforge.net,928-349-7081
113,Aimbu,Minneapolis,Minnesota,55412,nhowsley34@ameblo.jp,612-206-9157
114,Skimia,Fairfax,Virginia,22036,pfalco35@sakura.ne.jp,571-502-8279
115,Youspan,Columbus,Ohio,43220,eeckh36@mashable.com,614-760-1056
116,Photospace,Pensacola,Florida,32505,pdoog37@archive.org,850-548-5519
117,Miboo,Hialeah,Florida,33013,mcroal38@npr.org,786-686-3701
118,Yambee,Hollywood,Florida,33028,crollitt39@netvibes.com,954-627-8485
119,Tagopia,Huntington,West Virginia,25775,plearoid3a@drupal.org,304-356-6214
120,Twimm,Denver,Colorado,80209,adouty3b@prnewswire.com,303-803-5900
121,Yakitri,Spartanburg,South Carolina,29305,hburness3c@dion.ne.jp,864-191-4651
122,Jabbercube,Mountain View,California,94042,clobbe3d@ezinearticles.com,650-320-2507
123,Browsetype,Indianapolis,Indiana,46278,rpitherick3e@baidu.com,317-203-4645
124,Realcube,Detroit,Michigan,48295,sburrus3f@barnesandnoble.com,313-919-8630
125,Tazz,Orange,California,92867,aimesen3g@weather.com,714-358-5564
126,Eamia,Houston,Texas,77050,pianni3h@who.int,281-731-2459
127,Izio,Oklahoma City,Oklahoma,73104,orollin3i@bing.com,405-935-6475
128,Riffwire,Jersey City,New Jersey,07305,rdeveril3j@edublogs.org,201-660-8159
129,Livepath,Toledo,Ohio,43610,amersey3k@over-blog.com,419-272-8534
130,Tagtune,Indianapolis,Indiana,46266,rlysons3l@imdb.com,317-250-2875
131,Avamm,Midland,Michigan,48670,cvero3m@engadget.com,989-229-2508
132,Yambee,Chicago,Illinois,60641,hjacks3n@xrea.com,630-259-2310
133,Devbug,Fort Lauderdale,Florida,33336,zpaniman3o@bing.com,754-851-1516
134,Thoughtworks,Sacramento,California,95838,kskuse3p@geocities.jp,916-631-5839
135,Wikibox,Peoria,Illinois,61605,kdinning3q@independent.co.uk,309-564-4535
136,Browsezoom,Philadelphia,Pennsylvania,19172,cschwand3r@drupal.org,215-262-0834
137,Zoomzone,San Diego,California,92176,carendsen3s@blinklist.com,619-338-2575
138,Zava,Evansville,Indiana,47747,oilieve3t@umich.edu,812-303-9736
139,Thoughtmix,San Diego,California,92165,rstrowan3u@unicef.org,619-961-9767
140,Tazz,London,Kentucky,40745,nbehan3v@bloglines.com,606-395-9634
141,Jayo,Omaha,Nebraska,68197,ghulburd3w@wired.com,402-815-2123
142,Aibox,Richmond,Virginia,23237,lforgie3x@indiatimes.com,804-972-0311
143,Flipstorm,Albany,New York,12227,vmogridge3y@dot.gov,518-716-2522
144,Oyonder,Memphis,Tennessee,38109,dchown3z@washingtonpost.com,901-227-9609
145,Skinder,Atlanta,Georgia,30358,opondjones40@scribd.com,404-486-7445
146,Kazu,Tallahassee,Florida,32304,gchesters41@sohu.com,850-534-9420
147,Yadel,Minneapolis,Minnesota,55446,ibleasby42@over-blog.com,952-553-6381
148,Einti,Sparks,Nevada,89436,mziemens43@rediff.com,775-272-9488
149,Linkbuzz,Saginaw,Michigan,48604,cmil44@usa.gov,989-517-2250
150,BlogXS,Rochester,New York,14652,fmoseley45@etsy.com,585-100-3492
151,Quaxo,Irvine,California,92710,llouch46@gov.uk,714-604-9445
152,Flipopia,Greensboro,North Carolina,27404,dbuckenhill47@naver.com,336-420-4743
153,Jetwire,Staten Island,New York,10310,nraymen48@fastcompany.com,718-715-4761
154,Realbridge,Lynn,Massachusetts,01905,mamort49@springer.com,781-733-5128
155,Mynte,Phoenix,Arizona,85083,nhentzeler4a@oracle.com,602-408-0230
156,Avaveo,Pittsburgh,Pennsylvania,15240,jbaynes4b@shop-pro.jp,412-700-1121
157,Edgepulse,Paterson,New Jersey,07522,ugetch4c@blogs.com,973-106-7561
158,Yambee,Washington,District of Columbia,20067,ijendrassik4d@hhs.gov,202-270-4058
159,Chatterpoint,Corona,California,92878,sriseborough4e@t-online.de,951-129-5919
160,Rhybox,Des Moines,Iowa,50305,cimmer4f@unc.edu,515-115-8463
161,Feedfish,Toledo,Ohio,43605,idiggle4g@typepad.com,419-162-9479
162,Jabberstorm,Washington,District of Columbia,20029,habrahamian4h@shop-pro.jp,202-290-0293
163,Gevee,Fort Wayne,Indiana,46867,cdevaen4i@slashdot.org,260-929-0143
164,Brainsphere,Roanoke,Virginia,24040,brogge4j@bluehost.com,540-510-4238
165,Shuffledrive,Washington,District of Columbia,56944,blardeur4k@craigslist.org,202-923-4736
166,Meejo,Detroit,Michigan,48211,gmacmenamie4l@pbs.org,810-901-5382
167,BlogXS,Topeka,Kansas,66611,mburgwin4m@wiley.com,785-613-3650
168,Mycat,Rochester,New York,14683,slandall4n@bandcamp.com,585-261-8803
169,Zoomcast,Birmingham,Alabama,35215,clightollers4o@people.com.cn,205-566-3261
170,Oyonder,Sacramento,California,95818,cmargaritelli4p@auda.org.au,530-764-4500
171,Livepath,New York City,New York,10155,pgregolotti4q@redcross.org,646-132-9887
172,Realfire,New York City,New York,10060,mlaurenceau4r@wiley.com,646-292-9891
173,Shuffledrive,Birmingham,Alabama,35210,slauthian4s@sitemeter.com,334-634-7306
174,Gabtype,Burbank,California,91520,khaig4t@craigslist.org,626-468-3244
175,Dazzlesphere,Winston Salem,North Carolina,27150,ifulstow4u@mapy.cz,336-200-8475
176,Yakitri,Hollywood,Florida,33028,klowe4v@europa.eu,954-530-0535
177,Meevee,Lubbock,Texas,79410,aharback4w@goo.ne.jp,806-181-8919
178,Demivee,Boca Raton,Florida,33487,gklemke4x@xrea.com,561-581-8043
179,Trupe,Houston,Texas,77255,ccourtliff4y@microsoft.com,713-482-9429
180,Quatz,Orange,California,92867,ereilingen4z@techcrunch.com,714-406-9152
181,Devify,Springfield,Illinois,62711,agunner50@surveymonkey.com,217-340-6270
182,Skinix,Saint Paul,Minnesota,55188,cbatterbee51@newsvine.com,651-291-8971
183,Quimba,New York City,New York,10105,wflawn52@google.it,917-645-3349
184,Feednation,Sacramento,California,94230,zyukhnov53@bandcamp.com,916-968-4983
185,Dabjam,Phoenix,Arizona,85062,bdudgeon54@cnn.com,602-303-9428
186,Tagpad,Lincoln,Nebraska,68517,vrapkins55@cisco.com,402-471-6271
187,Livefish,Fairbanks,Alaska,99709,dstandon56@dot.gov,907-795-3686
188,Realcube,Columbus,Georgia,31998,pfeatley57@altervista.org,706-666-9844
189,Dynava,Brooksville,Florida,34605,nbogges58@census.gov,352-936-5022
190,Realmix,Peoria,Arizona,85383,ipassey59@unc.edu,928-526-7756
191,Twitterbridge,Washington,District of Columbia,20442,pwhitmarsh5a@ustream.tv,202-755-8430
192,Linktype,Portsmouth,New Hampshire,00214,lgradley5b@adobe.com,603-954-7838
193,Latz,Corpus Christi,Texas,78465,dmalster5c@google.ru,361-426-0856
194,Mymm,Omaha,Nebraska,68179,sjeyes5d@tripadvisor.com,402-874-2516
195,Cogilith,Shreveport,Louisiana,71137,gelward5e@livejournal.com,318-278-9474
196,Edgewire,Las Vegas,Nevada,89110,tgrimbaldeston5f@epa.gov,702-907-6484
197,Rhynyx,Shawnee Mission,Kansas,66220,qwaszczykowski5g@4shared.com,913-374-2398
198,Jabbertype,Naples,Florida,34114,afairall5h@acquirethisname.com,239-754-2547
199,Skiba,Warren,Michigan,48092,lperren5i@odnoklassniki.ru,810-172-2609
200,Brightbean,Oklahoma City,Oklahoma,73142,dlegion5j@sakura.ne.jp,405-803-5446
201,Roodel,Tacoma,Washington,98464,dlanahan5k@tripadvisor.com,253-408-1637
202,Meezzy,Las Vegas,Nevada,89166,levitt5l@chron.com,702-131-3434
203,Kwilith,Dallas,Texas,75221,dreasun5m@typepad.com,214-260-7278
204,Jaxspan,Duluth,Minnesota,55811,ctoffler5n@squarespace.com,218-534-2132
205,Cogidoo,Pittsburgh,Pennsylvania,15225,kvalde5o@addtoany.com,412-252-4267
206,Linklinks,Phoenix,Arizona,85067,khagergham5p@uol.com.br,602-997-2309
207,Avavee,Suffolk,Virginia,23436,aalves5q@360.cn,757-999-8324
208,Demimbu,Fort Worth,Texas,76162,cbriscam5r@amazon.de,682-404-1464
209,Meeveo,New Orleans,Louisiana,70154,kweafer5s@shutterfly.com,504-503-8378
210,Innojam,San Antonio,Texas,78210,mbonnick5t@usda.gov,210-608-4125
211,Fivespan,San Antonio,Texas,78235,akleinberer5u@linkedin.com,210-688-9495
212,Meejo,Silver Spring,Maryland,20910,scallear5v@blogger.com,240-655-1710
213,Fivechat,Houston,Texas,77045,stinsley5w@phoca.cz,281-188-9155
214,Kare,Raleigh,North Carolina,27615,dplaide5x@mozilla.org,919-961-1584
215,Kanoodle,Atlanta,Georgia,30356,ekrolman5y@linkedin.com,404-120-4545
216,Kayveo,Salt Lake City,Utah,84145,ehanrott5z@bigcartel.com,801-621-7925
217,Jetwire,Valley Forge,Pennsylvania,19495,gnoades60@ovh.net,484-565-6784
218,Chatterbridge,Lancaster,California,93584,fchieco61@opensource.org,661-641-9516
219,Linktype,Atlanta,Georgia,30340,cschafer62@weebly.com,404-753-9444
220,Yoveo,Peoria,Illinois,61605,ipartener63@mac.com,309-720-6845
221,Quinu,Washington,District of Columbia,20319,tmonshall64@nhs.uk,202-727-2081
222,Photospace,Apache Junction,Arizona,85219,stodor65@flickr.com,480-536-9831
223,Trudeo,Pasadena,California,91131,ccockerton66@twitpic.com,626-972-8040
224,Ainyx,Durham,North Carolina,27717,sfiddian67@studiopress.com,919-968-9918
225,Oyondu,Washington,District of Columbia,20005,icohan68@va.gov,202-270-8168
226,Skalith,Oklahoma City,Oklahoma,73152,tfreschi69@hao123.com,405-226-1957
227,Trudoo,Charleston,West Virginia,25331,rtire6a@geocities.jp,304-547-0461
228,Dazzlesphere,Philadelphia,Pennsylvania,19136,nosgorby6b@ovh.net,215-118-5212
229,Thoughtsphere,Garden Grove,California,92645,kcornu6c@posterous.com,714-848-2918
230,Realmix,Metairie,Louisiana,70005,cmarriot6d@oracle.com,504-227-4927
231,Pixoboo,Des Moines,Iowa,50305,nbartlosz6e@wunderground.com,515-570-5331
232,Rhynyx,Trenton,New Jersey,08608,istledger6f@aboutads.info,609-965-5275
233,Kwimbee,Virginia Beach,Virginia,23454,msykes6g@google.de,757-952-1233
234,Fadeo,Reno,Nevada,89550,llidgely6h@qq.com,775-133-6437
235,Aivee,San Jose,California,95194,swehner6i@wordpress.com,408-954-9453
236,Rhynyx,Portland,Oregon,97286,cgiven6j@addthis.com,503-350-4439
237,LiveZ,Lake Worth,Florida,33462,vtender6k@bbc.co.uk,561-940-9048
238,Bluezoom,Brooklyn,New York,11236,cbortolazzi6l@studiopress.com,917-775-3586
239,Bluezoom,Fresno,California,93715,bloblie6m@npr.org,209-520-0305
240,Mynte,Tulsa,Oklahoma,74116,cwoolens6n@amazon.co.uk,918-333-9635
241,Babbleset,Dallas,Texas,75397,ddaltry6o@hubpages.com,214-552-4821
242,Meezzy,Saint Louis,Missouri,63143,mkerner6p@yahoo.co.jp,314-433-4646
243,Tagfeed,Midland,Michigan,48670,dmatevushev6q@clickbank.net,989-282-7485
244,Eare,Spartanburg,South Carolina,29319,hnewhouse6r@admin.ch,864-490-2869
245,Rhyloo,Columbia,Missouri,65211,kvaz6s@tinypic.com,573-515-5671
246,Chatterbridge,New Orleans,Louisiana,70129,ihanway6t@marriott.com,504-852-4555
247,Centidel,Santa Clara,California,95054,atonkinson6u@unicef.org,650-371-1508
248,Yotz,Phoenix,Arizona,85030,neisikowitz6v@toplist.cz,602-785-7110
249,Brainlounge,Santa Clara,California,95054,ginmett6w@google.ru,650-850-8228
250,Linklinks,Spokane,Washington,99260,hwhanstall6x@newsvine.com,509-823-1627
251,Riffwire,Oceanside,California,92056,nclymo6y@artisteer.com,760-348-8311
252,Mydo,Pueblo,Colorado,81015,apitt6z@rakuten.co.jp,719-201-8678
253,Oyope,Stockton,California,95210,ccrossdale70@washington.edu,209-288-9793
254,Kazu,Tacoma,Washington,98481,wfernier71@washingtonpost.com,253-865-7145
255,Skaboo,Albany,New York,12262,hleathley72@g.co,518-579-4477
256,Zoonder,Jamaica,New York,11480,abaudoux73@reference.com,718-270-0589
257,Wikibox,Boise,Idaho,83732,csokill74@digg.com,208-539-0246
258,Voonyx,Oklahoma City,Oklahoma,73142,ecasement75@blinklist.com,405-169-7132
259,Talane,Columbus,Ohio,43231,amcateer76@wisc.edu,614-867-8911
260,Thoughtblab,Baton Rouge,Louisiana,70894,ehenriet77@ehow.com,225-398-5737
261,Zoomlounge,Houston,Texas,77030,acleworth78@youku.com,713-236-7974
262,Riffpath,San Antonio,Texas,78240,fbohl79@fema.gov,210-618-4332
263,Podcat,Chicago,Illinois,60663,wlerwell7a@unc.edu,312-951-8057
264,Voolith,Sacramento,California,94291,cmccaig7b@hud.gov,916-140-6131
265,Leexo,Memphis,Tennessee,38119,jduffell7c@last.fm,901-652-5429
266,Meezzy,Huntsville,Alabama,35895,ttatum7d@java.com,256-699-2558
267,Zoonder,Oklahoma City,Oklahoma,73104,dheigl7e@bing.com,405-126-9863
268,Voomm,Cincinnati,Ohio,45213,sbener7f@ow.ly,513-731-9439
269,Twitterbeat,Oklahoma City,Oklahoma,73142,gcolston7g@vinaora.com,405-967-0186
270,Skibox,Gainesville,Florida,32627,ahabeshaw7h@pinterest.com,352-346-1424
271,Tagchat,Fort Lauderdale,Florida,33325,shuff7i@who.int,954-599-3258
272,Devpoint,Phoenix,Arizona,85053,hedensor7j@vinaora.com,602-205-6751
273,Thoughtbridge,Portland,Oregon,97201,jburberow7k@virginia.edu,503-351-9897
274,Gabtype,Gaithersburg,Maryland,20883,ustennings7l@bloomberg.com,240-271-1994
275,Kwilith,Dallas,Texas,75353,eashbey7m@earthlink.net,214-629-9480
276,Babbleblab,Stamford,Connecticut,06912,scrickmore7n@foxnews.com,203-214-9523
277,Trudeo,Greenville,South Carolina,29615,folliffe7o@about.com,864-761-3779
278,Skiptube,Montgomery,Alabama,36195,bcorneljes7p@state.gov,334-568-6815
279,Flashspan,Troy,Michigan,48098,dwisniewski7q@jalbum.net,248-346-8285
280,Babbleblab,Las Vegas,Nevada,89193,jgowry7r@craigslist.org,702-128-5836
281,Edgewire,Morgantown,West Virginia,26505,disakov7s@51.la,304-847-8690
282,Kwilith,Atlanta,Georgia,30343,shanfrey7t@ifeng.com,404-711-4278
283,Dynava,Grand Rapids,Michigan,49560,ckeningham7u@is.gd,616-520-4718
284,Twitterwire,Arlington,Texas,76004,mhynard7v@princeton.edu,817-799-1683
285,Brainbox,Washington,District of Columbia,20535,jshawel7w@cbc.ca,202-723-5785
286,Jabberstorm,El Paso,Texas,88541,plilbourne7x@home.pl,915-704-1630
287,Rhycero,Fresno,California,93750,jgrute7y@va.gov,559-997-4335
288,Tagopia,Cincinnati,Ohio,45271,hpiburn7z@gravatar.com,513-640-0170
289,Trilith,Newton,Massachusetts,02162,cknowlson80@cargocollective.com,508-370-9802
290,Topiclounge,Birmingham,Alabama,35210,acharer81@amazon.de,205-514-3782
291,Quaxo,Evansville,Indiana,47732,mswinglehurst82@tmall.com,812-200-2017
292,Kare,Seattle,Washington,98133,fverryan83@geocities.jp,206-260-6233
293,Bluezoom,Bryan,Texas,77806,ssilveston84@prnewswire.com,979-764-1858
294,Tagpad,Spokane,Washington,99220,cmacduff85@cafepress.com,509-759-5284
295,Oyope,Charleston,West Virginia,25313,teasey86@dedecms.com,304-235-8041
296,Demimbu,Cape Coral,Florida,33915,mvonasek87@cloudflare.com,239-527-5407
297,Quaxo,New York City,New York,10203,uamorts88@home.pl,212-386-7492
298,Zoomcast,Omaha,Nebraska,68117,aplatt89@ibm.com,402-862-3256
299,Skyvu,Philadelphia,Pennsylvania,19196,rbeller8a@shareasale.com,215-242-8979
300,Browsebug,Tampa,Florida,33615,agothliff8b@yale.edu,813-164-4494
301,Divavu,Tampa,Florida,33610,fwilhelmy8c@yahoo.co.jp,813-271-0423
302,Thoughtbeat,Hicksville,New York,11854,ceastabrook8d@ft.com,516-422-5979
303,Mudo,Lake Charles,Louisiana,70607,mscritch8e@fema.gov,337-973-6669
304,Feedfire,Las Vegas,Nevada,89105,cquadri8f@printfriendly.com,702-783-8399
305,Zoonoodle,Sandy,Utah,84093,twigsell8g@networkadvertising.org,801-260-9041
306,Twitterbridge,Buffalo,New York,14210,ksimecek8h@ehow.com,716-339-1291
307,Divavu,New York City,New York,10249,ftoretta8i@oracle.com,212-852-4340
308,Rhyloo,San Francisco,California,94137,lcolson8j@utexas.edu,415-572-7321
309,Livepath,Greensboro,North Carolina,27404,wpepys8k@netlog.com,336-311-7521
310,Riffpedia,San Antonio,Texas,78230,jlenton8l@chronoengine.com,830-319-7872
311,Izio,Washington,District of Columbia,20414,csmoughton8m@ibm.com,202-726-7087
312,Fivechat,Chicago,Illinois,60657,kphilippart8n@dot.gov,312-394-6163
313,Yodel,Oklahoma City,Oklahoma,73147,gmccurrie8o@about.me,405-275-2634
314,Pixope,Boston,Massachusetts,02119,mbordessa8p@ted.com,508-538-8759
315,Edgeblab,Richmond,Virginia,23225,ltoombs8q@irs.gov,540-831-1215
316,Yodo,Spokane,Washington,99260,mcusiter8r@squidoo.com,509-543-8637
317,Shufflester,Syracuse,New York,13210,tgouldstone8s@nhs.uk,315-583-0778
318,Devshare,Odessa,Texas,79769,hloveridge8t@miibeian.gov.cn,432-824-0104
319,Tagpad,New York City,New York,10090,sgirault8u@163.com,212-361-9187
320,Oozz,Atlanta,Georgia,30380,nrosekilly8v@sitemeter.com,404-753-2152
321,Realcube,Detroit,Michigan,48267,mlinguard8w@artisteer.com,313-260-0373
322,Tavu,Inglewood,California,90398,lleveritt8x@sitemeter.com,310-507-4524
323,Vipe,Oklahoma City,Oklahoma,73152,dson8y@mac.com,405-399-0685
324,Wikido,Modesto,California,95397,tmartinec8z@yahoo.co.jp,209-888-4957
325,Kazio,Amarillo,Texas,79188,gcolville90@de.vu,806-952-9869
326,Yotz,Shawnee Mission,Kansas,66205,rstamps91@nasa.gov,816-407-6976
327,Muxo,Shawnee Mission,Kansas,66286,rdruery92@clickbank.net,913-189-4717
328,Browsebug,Washington,District of Columbia,20580,nburnyeat93@woothemes.com,202-451-1783
329,Zoovu,Cleveland,Ohio,44105,tasipenko94@wix.com,216-976-5322
330,Kwinu,Akron,Ohio,44393,ckelwaybamber95@earthlink.net,234-295-5915
331,Rhynyx,Cincinnati,Ohio,45296,cmatyugin96@goodreads.com,513-435-4084
332,Skyba,Dallas,Texas,75241,lblooman97@samsung.com,469-554-3873
333,Avamba,El Paso,Texas,88553,lattenbrough98@free.fr,915-763-2958
334,Rhybox,Cincinnati,Ohio,45218,lstockill99@1688.com,513-869-1687
335,Feedbug,Pittsburgh,Pennsylvania,15225,vbroseman9a@reference.com,412-733-5392
336,Yamia,Watertown,Massachusetts,02472,ccrudge9b@so-net.ne.jp,857-695-6266
337,Photobug,Buffalo,New York,14233,zhowland9c@csmonitor.com,716-827-2475
338,Zoomcast,Santa Rosa,California,95405,ltonn9d@huffingtonpost.com,707-821-5953
339,Edgeblab,Cincinnati,Ohio,45228,sattwooll9e@seattletimes.com,513-749-4116
340,Photolist,Washington,District of Columbia,20016,lcosker9f@aboutads.info,202-714-9866
341,Thoughtstorm,Burbank,California,91505,ahicks9g@exblog.jp,661-845-4356
342,Digitube,Fort Wayne,Indiana,46825,cferdinand9h@domainmarket.com,260-624-3541
343,Buzzster,Orange,California,92862,jbenadette9i@fema.gov,714-325-9970
344,Teklist,Lexington,Kentucky,40586,aisac9j@mapy.cz,859-257-2296
345,Teklist,Austin,Texas,78754,jbeagen9k@php.net,512-675-8839
346,Skilith,San Diego,California,92105,fclinnick9l@yahoo.com,858-112-0041
347,Ozu,Galveston,Texas,77554,hwrankmore9m@upenn.edu,281-906-5638
348,Thoughtbeat,El Paso,Texas,88519,mminette9n@state.gov,915-629-6052
349,Meejo,Gainesville,Georgia,30506,fshere9o@digg.com,404-225-3575
350,Quire,Honolulu,Hawaii,96825,rguest9p@unesco.org,808-910-8897
351,Quimba,Charleston,West Virginia,25305,bbridat9q@qq.com,304-470-2646
352,Gigashots,Tampa,Florida,33661,cianson9r@prweb.com,813-899-3718
353,Quatz,Schaumburg,Illinois,60193,dpettit9s@vinaora.com,224-758-2272
354,Rhyloo,Burbank,California,91520,ndominguez9t@wufoo.com,661-151-3034
355,Photobug,Carson City,Nevada,89714,chaseley9u@blogger.com,775-707-1103
356,Brightbean,Cleveland,Ohio,44111,wcalderon9v@nhs.uk,216-803-7251
357,Eamia,Philadelphia,Pennsylvania,19178,cjeune9w@whitehouse.gov,215-903-4770
358,Buzzdog,Virginia Beach,Virginia,23459,fmckmurrie9x@etsy.com,757-281-4751
359,Oyondu,White Plains,New York,10633,hsoigne9y@ocn.ne.jp,914-909-1409
360,Browsetype,Boston,Massachusetts,02124,gjobbings9z@rediff.com,617-540-1901
361,Skibox,Albuquerque,New Mexico,87201,smccurtaina0@sakura.ne.jp,505-606-4205
362,Ooba,Shreveport,Louisiana,71137,nlabroma1@google.cn,318-970-6197
363,Realbuzz,Washington,District of Columbia,20425,pscoona2@google.it,202-701-8973
364,Skyble,Baton Rouge,Louisiana,70894,wmacphadena3@nps.gov,225-834-3770
365,Voomm,Reston,Virginia,22096,zjensena4@usgs.gov,571-124-0624
366,Meemm,Reading,Pennsylvania,19605,jlenneya5@admin.ch,610-804-9703
367,Edgeify,North Little Rock,Arkansas,72199,emettsa6@harvard.edu,501-553-8270
368,Babbleopia,Honolulu,Hawaii,96805,mfeyera7@gravatar.com,808-929-8868
369,Gabspot,Chicago,Illinois,60697,apetoa8@1688.com,312-296-5545
370,Jabbersphere,Columbus,Ohio,43231,joganesiana9@yellowbook.com,614-950-1551
371,Gigashots,Memphis,Tennessee,38126,ggostridgeaa@drupal.org,901-662-1915
372,Fiveclub,Austin,Texas,78759,zassurab@rakuten.co.jp,512-310-9534
373,Bluejam,Lincoln,Nebraska,68517,cgirardezac@sphinn.com,402-990-5219
374,Zoozzy,El Paso,Texas,79950,gbarendtsenad@hatena.ne.jp,915-548-0672
375,Yacero,Santa Fe,New Mexico,87505,ostanggjertsenae@free.fr,505-576-0508
376,Katz,Santa Barbara,California,93106,uchiommientiaf@webmd.com,805-256-8964
377,Wikido,Asheville,North Carolina,28815,lfenderag@pinterest.com,828-416-8131
378,Mycat,Houston,Texas,77090,lschwanderah@google.ru,832-610-3792
379,Ozu,New York City,New York,10165,pmichelinai@taobao.com,646-117-0399
380,Mynte,Fort Lauderdale,Florida,33330,rknottleyaj@epa.gov,954-991-7867
381,Gabcube,Dallas,Texas,75287,mdancyak@quantcast.com,469-624-5887
382,Eadel,Spokane,Washington,99252,gluesleyal@soundcloud.com,509-842-8538
383,Photobean,Fort Worth,Texas,76147,ngalvanam@bravesites.com,817-223-3141
384,Trilith,Mesa,Arizona,85210,ginglebyan@answers.com,928-493-7072
385,Jatri,Stamford,Connecticut,06922,pgiraultao@hao123.com,203-448-4353
386,Blogtags,Seattle,Washington,98158,kbarnsdallap@tinyurl.com,425-435-2524
387,Flipbug,Roanoke,Virginia,24014,gpendergrastaq@house.gov,540-519-0323
388,Yata,Fort Worth,Texas,76115,asalatinoar@dailymail.co.uk,817-209-1454
389,Babbleset,Kansas City,Missouri,64125,mshermoreas@wordpress.org,816-755-3184
390,Tambee,Pittsburgh,Pennsylvania,15235,gdobelat@abc.net.au,724-235-4610
391,Photospace,Fairbanks,Alaska,99709,jletfordau@nytimes.com,907-294-6851
392,Skippad,Memphis,Tennessee,38136,sglavesav@bluehost.com,901-586-2637
393,Camimbo,Fullerton,California,92640,ddabrowskiaw@indiatimes.com,559-448-9033
394,DabZ,Fort Pierce,Florida,34981,cplomax@mlb.com,772-231-4997
395,Meedoo,Fresno,California,93762,okayzeray@yale.edu,559-924-9689
396,Yozio,Lincoln,Nebraska,68505,wsayceaz@issuu.com,402-996-9431
397,Jayo,Cleveland,Ohio,44130,kpetrovskyb0@ehow.com,216-475-4384
398,Jabbercube,Corpus Christi,Texas,78475,tmitrob1@odnoklassniki.ru,361-632-0137
399,Blogtags,Dallas,Texas,75342,rcaddockb2@gnu.org,972-116-5285
400,Reallinks,Alexandria,Louisiana,71307,tkennermannb3@prlog.org,318-725-0969
401,Skyvu,Washington,District of Columbia,20456,bperrottetb4@cocolog-nifty.com,202-989-1690
402,Flashspan,Louisville,Kentucky,40266,sbleythinb5@usnews.com,502-432-3659
403,Jabberstorm,Chicago,Illinois,60663,bpriscottb6@free.fr,312-691-7844
404,Photospace,Madison,Wisconsin,53705,abodkerb7@usatoday.com,608-725-1517
405,Lazzy,Jackson,Mississippi,39210,agergherb8@deliciousdays.com,601-959-8471
406,Kare,Fort Lauderdale,Florida,33310,jbrechinb9@wp.com,754-372-3127
407,Topicblab,New York City,New York,10045,mspirrittba@unesco.org,347-824-5442
408,Snaptags,Peoria,Illinois,61656,harnotbb@toplist.cz,309-539-6619
409,Mynte,Oklahoma City,Oklahoma,73179,mbernthbc@example.com,405-619-2095
410,Gabtype,Charleston,West Virginia,25336,bbrenardbd@dropbox.com,304-910-9685
411,Tekfly,Riverside,California,92505,rfitchewbe@jimdo.com,909-629-0857
412,Leenti,Memphis,Tennessee,38181,gmaingotbf@desdev.cn,901-685-5869
413,Dabfeed,Schaumburg,Illinois,60193,mhaydnbg@timesonline.co.uk,847-198-6299
414,Mymm,Terre Haute,Indiana,47812,cbaderbh@who.int,812-504-3877
415,Wikizz,Cedar Rapids,Iowa,52410,rsatterthwaitebi@myspace.com,319-114-4483
416,Pixope,San Jose,California,95133,lhagleybj@t.co,408-429-6452
417,Buzzdog,Silver Spring,Maryland,20910,rjunkinbk@nymag.com,301-766-2253
418,Devshare,Clearwater,Florida,34615,tfreschinibl@themeforest.net,727-281-0070
419,Pixoboo,Erie,Pennsylvania,16522,jrappoportbm@ow.ly,814-974-2705
420,Yombu,Van Nuys,California,91499,slucebn@ft.com,213-521-9006
421,Kanoodle,Stamford,Connecticut,06905,hgallamorebo@techcrunch.com,203-346-7094
422,Zoomzone,San Antonio,Texas,78296,rpagelsenbp@photobucket.com,210-313-8475
423,Oyoyo,Irvine,California,92710,esumersbq@patch.com,714-588-3672
424,Kazu,Fort Wayne,Indiana,46852,oorodanebr@umn.edu,260-245-0501
425,Skyvu,Brooklyn,New York,11241,bthoriusbs@ovh.net,347-894-7667
426,Trunyx,New York City,New York,10009,mbrumbiebt@fc2.com,646-715-3141
427,Skyble,Kansas City,Missouri,64101,wbonafacinobu@storify.com,816-382-1216
428,Tazzy,Los Angeles,California,90020,cstewardbv@rakuten.co.jp,310-362-7995
429,Feedfire,New Orleans,Louisiana,70179,tlaugharnebw@nyu.edu,504-509-6831
430,Miboo,New Orleans,Louisiana,70149,ljillingsbx@elegantthemes.com,504-543-4966
431,Photofeed,Erie,Pennsylvania,16510,rleucharsby@twitter.com,814-109-2553
432,Topdrive,Madison,Wisconsin,53790,rbaldingbz@1und1.de,608-902-7568
433,Topiczoom,Portland,Oregon,97296,gboshersc0@paginegialle.it,503-300-0289
434,Quimba,Newark,New Jersey,07188,bsuddellc1@ibm.com,862-577-9054
435,Vinder,Philadelphia,Pennsylvania,19146,jcarlislec2@dot.gov,267-483-9807
436,Linktype,Wilmington,Delaware,19897,zleamanc3@hc360.com,302-739-8691
437,Photospace,El Paso,Texas,79945,kdoddc4@apple.com,915-707-3684
438,Wordpedia,Chicago,Illinois,60646,khuxsterc5@canalblog.com,312-689-6703
439,Eire,Madison,Wisconsin,53716,lbuchananc6@hhs.gov,608-466-1040
440,Browsebug,Pensacola,Florida,32590,tbrammarc7@princeton.edu,850-292-3357
441,Yoveo,Oklahoma City,Oklahoma,73135,klongstaffc8@ebay.co.uk,405-200-9693
442,Edgeclub,Mobile,Alabama,36641,csuttyc9@bravesites.com,251-437-3603
443,Bubblemix,Memphis,Tennessee,38188,kmouserca@timesonline.co.uk,901-665-7694
444,Linklinks,Rockford,Illinois,61110,sblackboroughcb@chronoengine.com,815-330-7667
445,Edgeclub,Miami,Florida,33124,vbeckinghamcc@elpais.com,786-383-7139
446,Katz,Saint Petersburg,Florida,33705,bnecoldscd@mysql.com,813-892-5472
447,Vipe,Knoxville,Tennessee,37939,dtranmerce@utexas.edu,865-877-2751
448,Wikivu,Philadelphia,Pennsylvania,19109,vbarbercf@plala.or.jp,215-972-1422
449,Linktype,Palmdale,California,93591,lsanchiscg@artisteer.com,661-523-8578
450,Jabbertype,Lehigh Acres,Florida,33972,dgraalch@yelp.com,863-871-2473
451,Lazz,Akron,Ohio,44329,agymblettci@163.com,330-834-7260
452,Meevee,New York City,New York,10019,mkenwellcj@china.com.cn,347-196-5632
453,Centizu,Las Cruces,New Mexico,88006,gparkeck@accuweather.com,505-236-4030
454,Jetwire,New York City,New York,10009,amartinscl@blinklist.com,646-436-5203
455,Gabspot,Cincinnati,Ohio,45218,ejedrachowiczcm@psu.edu,513-932-1799
456,Kazio,Houston,Texas,77266,ctolomellicn@vinaora.com,832-588-6412
457,Photospace,Jackson,Mississippi,39236,gdranceco@shareasale.com,601-574-8318
458,Demimbu,Albuquerque,New Mexico,87105,pmenaulcp@arizona.edu,505-166-1799
459,Wordpedia,Washington,District of Columbia,20551,jlefevercq@tripadvisor.com,202-772-9310
460,Snaptags,Fairfax,Virginia,22036,abailisscr@ft.com,571-818-9204
461,Photojam,Omaha,Nebraska,68134,grapseycs@baidu.com,402-777-9423
462,Yata,Salt Lake City,Utah,84105,erainvillect@apple.com,435-412-0711
463,Feedspan,Houston,Texas,77055,mpiechecu@indiegogo.com,713-469-5515
464,Riffpedia,El Paso,Texas,79994,cfernanandocv@microsoft.com,915-755-9131
465,Tanoodle,Columbia,South Carolina,29225,mjouencw@ft.com,803-611-4533
466,Avamba,Springfield,Massachusetts,01152,channacx@pinterest.com,413-963-9017
467,Gabvine,San Francisco,California,94147,jniblettcy@topsy.com,415-586-4509
468,Avamm,Metairie,Louisiana,70005,lbeddowscz@globo.com,504-868-6362
469,Muxo,Indianapolis,Indiana,46254,sceeleyd0@cdc.gov,317-804-1816
470,Edgepulse,Prescott,Arizona,86305,ewengerd1@dyndns.org,928-505-8429
471,Meejo,Boulder,Colorado,80328,zdanield2@japanpost.jp,303-767-5505
472,Fivebridge,Houston,Texas,77055,ztorrejond3@cnbc.com,713-258-4330
473,Podcat,Dallas,Texas,75277,strubshawed4@altervista.org,214-292-6431
474,Browsebug,Fort Lauderdale,Florida,33345,saudissd5@netvibes.com,754-428-2855
475,Geba,Washington,District of Columbia,20215,istainsd6@ucoz.ru,202-906-1203
476,Brainsphere,Spokane,Washington,99252,gclaissed7@ucsd.edu,509-831-5778
477,Edgetag,Santa Barbara,California,93111,guccelid8@independent.co.uk,702-601-7165
478,Gigashots,Grand Rapids,Michigan,49560,glissimored9@slate.com,616-659-1100
479,Jazzy,Houston,Texas,77299,nespda@cmu.edu,713-790-8190
480,Youspan,Lynchburg,Virginia,24503,ldelafielddb@google.com.hk,434-823-3913
481,Yakijo,Boynton Beach,Florida,33436,romarkeydc@boston.com,561-520-9390
482,Jaxworks,Conroe,Texas,77305,lbriskeydd@w3.org,936-495-0320
483,Cogibox,El Paso,Texas,88519,araggede@cmu.edu,915-272-7077
484,Vidoo,Boston,Massachusetts,02208,bramsbydf@pinterest.com,617-226-9639
485,Zava,San Antonio,Texas,78245,rbygravesdg@sciencedirect.com,210-259-9085
486,Zoombox,Saint Louis,Missouri,63180,sibertdh@nasa.gov,314-744-3923
487,Mycat,Springfield,Illinois,62764,ktorradi@unc.edu,217-204-8030
488,Realfire,Mobile,Alabama,36670,sthomassendj@blogs.com,251-415-9044
489,Linkbuzz,Los Angeles,California,90040,mbonehilldk@chronoengine.com,714-710-1709
490,Wordpedia,Charleston,West Virginia,25362,ehekdl@pcworld.com,304-706-4111
491,Skajo,Saginaw,Michigan,48609,oprydedm@foxnews.com,989-882-0807
492,Fadeo,North Las Vegas,Nevada,89087,cpicknettdn@sfgate.com,702-941-1336
493,Jaxspan,Great Neck,New York,11024,rgullanedo@dion.ne.jp,516-832-5535
494,Edgeclub,Amarillo,Texas,79159,bgallanddp@statcounter.com,806-821-0721
495,Gigazoom,Greensboro,North Carolina,27409,agodsafedq@dell.com,336-671-2303
496,InnoZ,Dallas,Texas,75397,ehewinsdr@addtoany.com,214-686-9840
497,Twiyo,Fort Lauderdale,Florida,33325,labramids@mac.com,954-695-8888
498,Camimbo,Alpharetta,Georgia,30022,mminghidt@mlb.com,404-962-1895
499,Dynava,Bethesda,Maryland,20892,kglauberdu@clickbank.net,301-122-5674
500,Snaptags,Little Rock,Arkansas,72204,chollowsdv@chicagotribune.com,501-430-6318
501,Fadeo,Cheyenne,Wyoming,82007,lbatistellidw@ucla.edu,307-278-1166
502,Meevee,Atlanta,Georgia,30316,schamdx@hostgator.com,678-524-1984
503,Livetube,Washington,District of Columbia,20099,gjoshamdy@salon.com,202-830-4201
504,Miboo,Silver Spring,Maryland,20918,mfendlowdz@360.cn,240-381-4031
505,Skaboo,Oakland,California,94622,ebromptone0@blog.com,510-203-6508
506,Oba,Tulsa,Oklahoma,74103,srockcliffee1@unesco.org,918-334-0443
507,Blogpad,Maple Plain,Minnesota,55572,aredde2@drupal.org,763-675-6224
508,Avavee,Las Cruces,New Mexico,88006,owarkee3@accuweather.com,505-116-7119
509,Photolist,Lexington,Kentucky,40586,dputterille4@newyorker.com,859-568-2419
510,BlogXS,Sacramento,California,94291,lovene5@usda.gov,916-682-5903
511,Kwideo,Pittsburgh,Pennsylvania,15279,zgodine6@1688.com,412-632-6664
512,Zoomzone,San Diego,California,92110,scharriere7@51.la,858-897-3558
513,Mydo,Chicago,Illinois,60652,hworsnape8@t.co,312-465-5406
514,Twimbo,Elizabeth,New Jersey,07208,rcattanache9@sciencedirect.com,908-706-7013
515,Jatri,Houston,Texas,77060,cfarnyea@list-manage.com,281-937-1552
516,Edgepulse,Levittown,Pennsylvania,19058,zmizzeneb@ebay.co.uk,267-586-9715
517,Quamba,Kalamazoo,Michigan,49048,agirkeec@nydailynews.com,269-194-9118
518,Rhyzio,Sarasota,Florida,34233,sdowned@ihg.com,941-485-6779
519,Photospace,Pasadena,California,91109,equinneyee@lycos.com,818-675-2665
520,Zoomlounge,Van Nuys,California,91406,kcromeref@ifeng.com,818-944-0743
521,Browsecat,New York City,New York,10090,ddewdneyeg@umich.edu,212-620-4106
522,Jabbertype,New Orleans,Louisiana,70124,askipponeh@accuweather.com,985-600-9660
523,Buzzdog,Durham,North Carolina,27717,mwayonei@barnesandnoble.com,919-536-8742
524,Jaxworks,Houston,Texas,77075,rhellcatej@hibu.com,832-490-3077
525,Dabtype,Topeka,Kansas,66622,vkieffek@tripod.com,785-530-6480
526,Jabberbean,San Diego,California,92191,ahalversenel@deviantart.com,619-749-0228
527,Browsebug,Washington,District of Columbia,20260,ccavanaghem@prweb.com,202-363-2162
528,Rhycero,Fredericksburg,Virginia,22405,ohaswellen@nhs.uk,540-920-8552
529,Twitterworks,Pasadena,California,91199,sthackerayeo@unblog.fr,626-871-8052
530,Dabjam,Green Bay,Wisconsin,54313,jglenep@huffingtonpost.com,920-447-2016
531,Skyble,Vero Beach,Florida,32964,ealgeoeq@vimeo.com,772-193-3564
532,Meezzy,Little Rock,Arkansas,72204,mnowerer@ehow.com,501-350-7020
533,Gigazoom,Pittsburgh,Pennsylvania,15210,pjenckeses@mtv.com,724-581-3675
534,Fiveclub,Spring,Texas,77386,fambroziket@epa.gov,713-378-6042
535,Devpoint,Tacoma,Washington,98464,estitsoneu@php.net,253-729-4213
536,Skinder,Fort Smith,Arkansas,72905,fmattaserev@ft.com,479-352-0592
537,Browsezoom,Hartford,Connecticut,06145,vbanatew@cornell.edu,860-803-2593
538,Riffpedia,Honolulu,Hawaii,96820,acabedoex@cyberchimps.com,808-587-5030
539,Skyvu,New Orleans,Louisiana,70165,brodgierey@sohu.com,504-386-0666
540,Shuffletag,San Jose,California,95118,zhatwellez@imageshack.us,408-989-3179
541,Mybuzz,Toledo,Ohio,43699,wbowerf0@google.ru,419-169-0454
542,Linklinks,Tempe,Arizona,85284,hsharkf1@google.com.br,602-788-8869
543,Divanoodle,Long Beach,California,90847,mnoonanf2@github.io,562-614-1093
544,Zoombeat,Beaumont,Texas,77713,tduplantierf3@nationalgeographic.com,936-401-5934
545,Trilith,Tucson,Arizona,85754,mkirragef4@51.la,520-360-0062
546,Snaptags,Madison,Wisconsin,53790,ngroddenf5@nba.com,608-649-6885
547,Yotz,Phoenix,Arizona,85040,ltookef6@bigcartel.com,480-978-6118
548,Browsetype,Newport News,Virginia,23605,ccrustf7@unc.edu,757-388-9418
549,Feedspan,Tallahassee,Florida,32399,bsidryf8@woothemes.com,850-542-4692
550,Kayveo,Reston,Virginia,22096,ablinckhornef9@biglobe.ne.jp,571-411-5099
551,Eabox,Orlando,Florida,32835,ckiosselfa@businesswire.com,321-541-5479
552,Jabberbean,Homestead,Florida,33034,ghazeupfb@vimeo.com,786-593-7084
553,Feednation,Honolulu,Hawaii,96840,mzavatterofc@skype.com,808-175-5686
554,Voolia,Canton,Ohio,44720,tdillingstonfd@admin.ch,234-474-0587
555,Skibox,Fort Wayne,Indiana,46896,gsweetnamfe@constantcontact.com,260-231-1119
556,Leenti,Fort Worth,Texas,76110,ncollarff@sciencedirect.com,682-129-8942
557,Kazu,Wilmington,Delaware,19897,dferraronfg@spotify.com,302-941-7761
558,Quatz,Charlotte,North Carolina,28215,hheardfh@gmpg.org,704-656-9920
559,Roombo,Fresno,California,93721,vsergeauntfi@sakura.ne.jp,559-168-4997
560,Gevee,Louisville,Kentucky,40205,tdarlingfj@biglobe.ne.jp,502-681-4644
561,Devpoint,San Jose,California,95123,leldonfk@yandex.ru,408-942-2289
562,Babbleset,Houston,Texas,77281,nkovelmannfl@behance.net,713-158-6618
563,Pixope,Longview,Texas,75605,dspoursfm@ebay.com,903-370-8498
564,Zoonoodle,Memphis,Tennessee,38181,hmacalessfn@csmonitor.com,901-881-9061
565,Browsetype,Warren,Ohio,44485,eoloughnanfo@npr.org,330-571-0101
566,Tazz,San Antonio,Texas,78230,abathamfp@naver.com,210-596-3052
567,Yodoo,Clearwater,Florida,33763,joaklandfq@springer.com,727-200-2505
568,Edgeblab,Hialeah,Florida,33013,ckemsterfr@opensource.org,305-338-5774
569,Voolia,Tucson,Arizona,85725,edemogefs@google.de,520-425-1292
570,Divanoodle,Gaithersburg,Maryland,20883,clewknorft@mail.ru,240-810-8234
571,Innojam,Salt Lake City,Utah,84135,hshackletonfu@mapy.cz,801-350-9914
572,Voomm,Topeka,Kansas,66622,jflockhartfv@privacy.gov.au,785-600-9526
573,Tambee,Memphis,Tennessee,38136,asafontfw@icq.com,901-944-5775
574,Leenti,Biloxi,Mississippi,39534,psavilfx@addtoany.com,228-140-2054
575,Voonyx,Atlanta,Georgia,31165,bcorderyfy@opensource.org,404-930-7281
576,Demizz,Saint Louis,Missouri,63104,gsamsfz@yellowpages.com,314-938-3212
577,Mycat,Los Angeles,California,90087,djakuszewskig0@miitbeian.gov.cn,213-673-4207
578,Feedspan,Savannah,Georgia,31416,esmogurg1@virginia.edu,912-274-5459
579,Fanoodle,Fort Myers,Florida,33906,kgromleyg2@google.com.br,239-918-8533
580,Tagpad,Philadelphia,Pennsylvania,19104,grivittg3@globo.com,215-883-2006
581,Eayo,Orange,California,92668,gavrashing4@springer.com,760-622-6206
582,Photobean,Oxnard,California,93034,ldiamantg5@mac.com,805-830-4267
583,Jatri,New York City,New York,10165,imoyseyg6@skype.com,212-163-8593
584,Katz,Des Moines,Iowa,50369,gbleueg7@hp.com,515-443-9150
585,Meemm,Washington,District of Columbia,20546,qtillettg8@sina.com.cn,202-663-9208
586,Ntag,Orange,California,92867,adeddeng9@ca.gov,949-926-5625
587,Livetube,Wichita,Kansas,67260,drowlsonga@cpanel.net,316-144-5654
588,Wikido,Oakland,California,94622,tpearminegb@spotify.com,510-920-8306
589,Youspan,Seattle,Washington,98140,rmeaghergc@bloglovin.com,206-449-3123
590,Gigabox,Omaha,Nebraska,68124,ifiguragd@linkedin.com,402-871-4390
591,Dynazzy,Columbia,Missouri,65218,kpowriege@slideshare.net,573-840-6475
592,Leexo,Louisville,Kentucky,40233,fpesterfieldgf@alexa.com,502-724-9680
593,Tazz,Miami,Florida,33190,tgluyusgg@cargocollective.com,786-142-2797
594,Thoughtstorm,Cincinnati,Ohio,45218,mtonksgh@smugmug.com,513-661-5598
595,Demimbu,Tampa,Florida,33647,ybraveygi@themeforest.net,813-998-9663
596,Kwinu,Wilmington,North Carolina,28410,dpriestgj@smugmug.com,910-447-6555
597,Skippad,Fort Lauderdale,Florida,33320,mbrabbsgk@yellowbook.com,754-179-0335
598,Zoovu,Indianapolis,Indiana,46239,whellyergl@ucsd.edu,317-240-7504
599,Skinder,Corpus Christi,Texas,78465,jpleasegm@hao123.com,361-925-2762
600,Omba,Charlotte,North Carolina,28205,fpalekgn@digg.com,704-899-3518
601,Quinu,Suffolk,Virginia,23436,imorchgo@i2i.jp,757-300-0033
602,Buzzster,Macon,Georgia,31296,rgievesgp@yelp.com,478-380-5697
603,Meeveo,Tucson,Arizona,85743,gteggingq@pinterest.com,520-779-4443
604,Quinu,Oklahoma City,Oklahoma,73109,chailesgr@google.it,405-361-7329
605,Avamm,El Paso,Texas,88525,smilleags@nifty.com,915-546-0416
606,Trudoo,Detroit,Michigan,48242,ascrannagegt@springer.com,734-589-8667
607,Flipbug,Topeka,Kansas,66611,asenecauxgu@jugem.jp,785-139-5895
608,Voolith,Alpharetta,Georgia,30022,akegginsgv@webmd.com,404-145-9868
609,Zoombox,Dallas,Texas,75342,bcondiegw@goodreads.com,972-857-1514
610,Yodo,El Paso,Texas,79968,psitwellgx@mapy.cz,915-913-0555
611,Quinu,San Diego,California,92170,chanesgy@cnn.com,619-692-4811
612,Meeveo,Bethesda,Maryland,20816,ndunseathgz@g.co,240-109-3026
613,Omba,El Paso,Texas,88584,jtonsleyh0@timesonline.co.uk,915-814-8146
614,Jetpulse,Phoenix,Arizona,85005,toscanlonh1@wix.com,480-804-2115
615,Katz,Stamford,Connecticut,06912,gierlandh2@gnu.org,203-559-1780
616,Latz,San Jose,California,95133,kstachinih3@nyu.edu,408-264-2555
617,Jabbercube,Minneapolis,Minnesota,55412,nvonderemptenh4@yale.edu,952-933-3602
618,Yodel,Atlanta,Georgia,31165,mforstallh5@bigcartel.com,404-940-0099
619,Livetube,Newark,Delaware,19714,nbenninckh6@storify.com,302-708-2190
620,Tekfly,Ridgely,Maryland,21684,mhulmesh7@ycombinator.com,410-104-3010
621,Rhynoodle,Jamaica,New York,11447,fslocketh8@ow.ly,917-866-0492
622,Realbridge,Santa Ana,California,92705,aorfeurh9@bravesites.com,949-878-6997
623,Chatterbridge,Wilkes Barre,Pennsylvania,18768,jgarbuttha@soup.io,570-838-3341
624,Divanoodle,Palo Alto,California,94302,adarmodyhb@parallels.com,310-208-7151
625,Dynazzy,West Palm Beach,Florida,33411,ataffeehc@foxnews.com,954-456-4500
626,Feedmix,Birmingham,Alabama,35285,gsiddeleyhd@umich.edu,205-911-2233
627,Eidel,Philadelphia,Pennsylvania,19136,tkunzehe@histats.com,215-458-8783
628,Kwimbee,Kansas City,Missouri,64114,dgrattenhf@imdb.com,816-218-0906
629,Yombu,Prescott,Arizona,86305,cstrikehg@globo.com,520-102-0768
630,Yodo,Gaithersburg,Maryland,20883,jmenendeshh@xinhuanet.com,240-990-5007
631,Thoughtblab,Greensboro,North Carolina,27415,bpummellhi@techcrunch.com,336-490-1966
632,Wordware,Little Rock,Arkansas,72215,eallmenhj@un.org,501-225-7445
633,Realfire,Saint Cloud,Minnesota,56398,ciddienshk@macromedia.com,320-177-1272
634,Brainlounge,Hicksville,New York,11854,rprofferhl@yellowbook.com,516-256-2527
635,Livetube,Jacksonville,Florida,32225,zbeckershm@etsy.com,904-217-3981
636,Tazzy,Dallas,Texas,75392,jheadlyhn@hhs.gov,214-342-2932
637,Edgepulse,Indianapolis,Indiana,46254,msacazeho@mayoclinic.com,317-957-6969
638,Brainlounge,Brooklyn,New York,11231,qbonneyhp@si.edu,718-402-1110
639,JumpXS,Philadelphia,Pennsylvania,19136,kvanderhooghq@imgur.com,215-350-2969
640,Livefish,Scranton,Pennsylvania,18505,hsaundershr@prlog.org,570-890-5777
641,Eabox,Columbia,South Carolina,29208,slenoirehs@washington.edu,803-275-1892
642,Gabtype,Harrisburg,Pennsylvania,17140,ggreenight@myspace.com,717-103-3125
643,Jabbersphere,El Paso,Texas,88553,mmackimmiehu@ucoz.com,915-638-8633
644,Photobean,Sacramento,California,95838,ntuffieldhv@quantcast.com,916-400-4325
645,Edgetag,Peoria,Illinois,61635,bcaldicotthw@lulu.com,309-745-7380
646,Skyble,Erie,Pennsylvania,16522,kgrattonhx@friendfeed.com,814-591-7500
647,Digitube,Austin,Texas,78749,eaaronsohnhy@prweb.com,512-774-5918
648,Realbridge,Atlanta,Georgia,31165,elorkinshz@wikia.com,404-827-8717
649,Wordware,Anaheim,California,92805,gcreykei0@gnu.org,310-491-7272
650,Topicblab,Richmond,Virginia,23277,nmorseyi1@behance.net,804-625-2216
651,Latz,Tallahassee,Florida,32399,llongcakei2@technorati.com,850-356-7177
652,Ailane,Carol Stream,Illinois,60158,charmeri3@godaddy.com,309-245-7386
653,Oyoyo,New York City,New York,10014,gofogertyi4@nhs.uk,646-819-0022
654,Voonder,Aurora,Colorado,80045,fjoslowi5@drupal.org,303-410-2389
655,Lazz,Corona,California,92883,bdavidii6@pbs.org,626-664-2305
656,Roombo,Washington,District of Columbia,20067,msidei7@xing.com,202-531-3814
657,Rhybox,Dayton,Ohio,45414,mlaxtoni8@wordpress.org,937-986-4981
658,Thoughtstorm,Charlotte,North Carolina,28289,kmatthesseni9@spiegel.de,704-283-2060
659,Wikido,Atlanta,Georgia,31106,kmcmeekingia@hexun.com,404-458-2685
660,Jabbercube,Billings,Montana,59112,lmcginnyib@google.fr,406-162-5377
661,Wordpedia,Paterson,New Jersey,07544,snorthidgeic@pcworld.com,862-699-8663
662,Youopia,Virginia Beach,Virginia,23454,slondonid@about.me,757-766-6845
663,Youtags,Worcester,Massachusetts,01654,dairetonie@imgur.com,508-136-0588
664,Gigazoom,Columbus,Ohio,43204,bbodleighif@ifeng.com,614-115-3101
665,Dazzlesphere,Rochester,New York,14624,dearlig@wikipedia.org,585-463-5344
666,Voonix,Shawnee Mission,Kansas,66215,lsyslandih@zimbio.com,913-486-2844
667,Oyoloo,Shawnee Mission,Kansas,66220,bosgarii@trellian.com,913-116-7895
668,Latz,San Francisco,California,94177,tmuatij@nps.gov,415-633-0842
669,Bluezoom,El Paso,Texas,79945,jarmitik@wikipedia.org,915-894-9479
670,Einti,Mobile,Alabama,36641,sswanil@europa.eu,251-742-3812
671,Skipstorm,Shawnee Mission,Kansas,66276,nibbittim@spiegel.de,913-318-1292
672,Skiba,Indianapolis,Indiana,46254,mleonardsin@livejournal.com,317-110-8919
673,Zava,Schaumburg,Illinois,60193,wschererio@xinhuanet.com,312-721-8659
674,Jabberstorm,New York City,New York,10184,pinggallip@house.gov,212-175-3596
675,Oyoba,Washington,District of Columbia,20226,jnorreeiq@bbc.co.uk,202-350-8679
676,Fiveclub,Norwalk,Connecticut,06854,zoillerir@rakuten.co.jp,203-783-2681
677,Photofeed,Atlanta,Georgia,30311,mclawleyis@umn.edu,678-458-2766
678,Lajo,Lake Worth,Florida,33462,adeangeloit@vkontakte.ru,561-580-8207
679,Wikizz,Las Vegas,Nevada,89145,tkybertiu@loc.gov,702-601-5446
680,Devpulse,Seattle,Washington,98175,vgarviniv@prnewswire.com,206-930-4039
681,Skibox,Louisville,Kentucky,40220,ckowalskiiw@mlb.com,502-447-1535
682,Skinix,Mobile,Alabama,36689,ajellicorseix@nyu.edu,251-100-0779
683,Voonyx,Jamaica,New York,11470,psherwelliy@theatlantic.com,718-681-1798
684,Feedfish,Jamaica,New York,11431,bcarbonelliz@constantcontact.com,212-765-9119
685,Bluejam,Trenton,New Jersey,08638,mcuddehayj0@usa.gov,609-263-5074
686,Edgeclub,Lake Charles,Louisiana,70607,mgavrielj1@aboutads.info,337-392-9833
687,Voomm,Atlanta,Georgia,30375,mgerantj2@tinyurl.com,404-930-9408
688,Flipstorm,Birmingham,Alabama,35231,hkondratj3@cargocollective.com,205-491-8240
689,Blognation,Fort Worth,Texas,76121,mstambridgej4@slideshare.net,817-458-0021
690,Rhybox,San Diego,California,92196,cshoveltonj5@addthis.com,619-292-7719
691,Vinte,Lansing,Michigan,48901,ltregonaj6@phpbb.com,517-804-1553
692,Gabvine,Springfield,Illinois,62718,bwoolveridgej7@independent.co.uk,217-503-8320
693,Kayveo,Biloxi,Mississippi,39534,wcainsj8@istockphoto.com,228-116-1951
694,Dabtype,Atlanta,Georgia,31132,hbaalj9@addtoany.com,404-925-9015
695,Yodel,Elizabeth,New Jersey,07208,lceelyja@amazon.com,908-451-6377
696,Vipe,Alexandria,Virginia,22301,kleborgnejb@state.tx.us,202-202-6699
697,Mita,Odessa,Texas,79769,gcosinjc@amazon.co.jp,432-971-2687
698,Skaboo,Hartford,Connecticut,06145,pconfortjd@irs.gov,860-623-0339
699,Chatterpoint,Oklahoma City,Oklahoma,73147,eblazhevichje@taobao.com,405-599-8585
700,Meetz,Columbus,Ohio,43226,dburdittjf@nbcnews.com,614-166-5053
701,Flipopia,San Francisco,California,94142,zlyptradejg@sohu.com,415-155-5727
702,Dabjam,Charlotte,North Carolina,28272,abroomheadjh@unesco.org,704-530-0640
703,Vidoo,Houston,Texas,77070,sspurgeonji@desdev.cn,832-397-7508
704,Thoughtstorm,Pittsburgh,Pennsylvania,15220,babrahmerjj@flavors.me,412-156-8580
705,Thoughtworks,Sacramento,California,95852,lwillowbyjk@nymag.com,916-926-4508
706,Einti,Las Vegas,Nevada,89130,lbettinsonjl@pagesperso-orange.fr,702-173-7904
707,Youfeed,Rochester,New York,14652,fdickingsjm@discuz.net,585-418-3658
708,Eire,Tacoma,Washington,98464,ptremellanjn@bloomberg.com,253-925-4940
709,Buzzbean,El Paso,Texas,88558,gcawsyjo@slashdot.org,915-435-0059
710,Skiba,El Paso,Texas,88558,jrosenscheinjp@hao123.com,915-896-3732
711,Topicstorm,Cleveland,Ohio,44105,adecarolisjq@eepurl.com,216-536-5504
712,Quimba,Anniston,Alabama,36205,dlorentjr@ft.com,256-192-0818
713,Muxo,Springfield,Illinois,62718,eharradinejs@netlog.com,217-383-6387
714,Dabjam,Garden Grove,California,92645,ycamblinjt@bing.com,714-159-0390
715,Realblab,Minneapolis,Minnesota,55448,gvondruskaju@utexas.edu,763-689-7898
716,Voonder,Austin,Texas,78703,dwoolleyjv@china.com.cn,512-200-3710
717,Feedspan,Burbank,California,91505,odenkeljw@last.fm,323-303-4857
718,Mydeo,Washington,District of Columbia,20575,bbroseniusjx@jugem.jp,202-421-3214
719,Feedmix,Miami,Florida,33283,mheelisjy@netlog.com,305-891-3019
720,Kimia,Washington,District of Columbia,20078,dgraundissonjz@livejournal.com,202-930-9342
721,DabZ,Temple,Texas,76505,wlathomk0@statcounter.com,254-375-2866
722,Zoovu,Birmingham,Alabama,35231,hheinsenk1@europa.eu,205-948-9662
723,Kwinu,Phoenix,Arizona,85010,tbaudreyk2@sogou.com,602-651-9904
724,Yakijo,Pittsburgh,Pennsylvania,15215,tspurdensk3@newsvine.com,412-635-7519
725,Topicshots,Montgomery,Alabama,36195,cprisek4@tripod.com,334-977-6136
726,Midel,Washington,District of Columbia,20220,adugank5@craigslist.org,202-707-5511
727,Fadeo,Santa Monica,California,90405,ttiptonk6@elegantthemes.com,310-768-0466
728,Tazzy,Dallas,Texas,75310,cuttersonk7@fotki.com,214-300-2092
729,Quimba,Des Moines,Iowa,50362,gcollardk8@goo.ne.jp,515-755-6060
730,Wikido,Bloomington,Indiana,47405,pworgenk9@feedburner.com,812-683-9486
731,Teklist,Tuscaloosa,Alabama,35487,dbowleska@yahoo.com,205-467-0697
732,Yadel,San Antonio,Texas,78230,tivisonkb@unblog.fr,830-707-5066
733,Eimbee,San Francisco,California,94116,mpatrichekc@surveymonkey.com,415-954-0094
734,Zoomcast,Tulsa,Oklahoma,74116,sschapirokd@omniture.com,918-969-0489
735,Digitube,Temple,Texas,76505,roriordanke@washington.edu,254-210-8727
736,Photojam,Erie,Pennsylvania,16505,emelrosskf@addthis.com,814-741-8493
737,Skaboo,Bozeman,Montana,59771,splumekg@liveinternet.ru,406-363-1694
738,Flipstorm,Huntington,West Virginia,25711,bbathamkh@google.de,304-868-5107
739,Feedfire,Rochester,New York,14639,lirdaleki@webnode.com,585-794-2987
740,Gigashots,Sacramento,California,95823,dbullenkj@pbs.org,916-619-8655
741,Skalith,Modesto,California,95397,ccollardkk@soundcloud.com,209-970-7225
742,Jabbertype,Evansville,Indiana,47725,amacsweeneykl@aboutads.info,812-765-0908
743,Fivechat,Reno,Nevada,89550,wunwinskm@yellowbook.com,775-930-3813
744,Browsetype,Los Angeles,California,90025,lveltmannkn@washington.edu,213-544-7646
745,Skinte,Kansas City,Missouri,64109,asaffenko@arstechnica.com,816-706-7330
746,Dazzlesphere,Albuquerque,New Mexico,87115,ngierckekp@usa.gov,505-357-4306
747,Devshare,Wilmington,North Carolina,28410,wbalkekq@surveymonkey.com,910-855-9502
748,Voonder,Inglewood,California,90398,dsitfordkr@wired.com,310-169-5752
749,Photobug,San Jose,California,95173,ewhealks@deliciousdays.com,408-349-3815
750,Photobug,Reston,Virginia,22096,jpikettkt@ftc.gov,571-768-0438
751,Linkbuzz,Saint Paul,Minnesota,55188,wpowderku@hibu.com,651-599-2715
752,Flashpoint,Madison,Wisconsin,53790,clindeboomkv@issuu.com,608-704-4187
753,Gabtype,Port Charlotte,Florida,33954,bsissonkw@earthlink.net,941-346-6454
754,Tagpad,Richmond,Virginia,23237,nliebkx@webeden.co.uk,804-144-5952
755,Wikivu,Fort Lauderdale,Florida,33310,spetrichatky@shutterfly.com,754-461-6033
756,Blogpad,Naples,Florida,34102,mkondratyukkz@thetimes.co.uk,239-503-5949
757,Devbug,Maple Plain,Minnesota,55572,sdreinanl0@zdnet.com,763-478-9889
758,Twitterbridge,Toledo,Ohio,43699,rpignyl1@army.mil,419-476-6261
759,Shufflebeat,Salt Lake City,Utah,84170,gkindleyl2@spiegel.de,801-447-9097
760,Wikibox,Fort Lauderdale,Florida,33310,rpellamontl3@vkontakte.ru,754-121-9039
761,Meembee,Colorado Springs,Colorado,80995,bbellangerl4@tinypic.com,719-413-8638
762,Yambee,Indianapolis,Indiana,46247,cmolsonl5@intel.com,317-794-2460
763,Linkbridge,San Diego,California,92176,cmoakesl6@fc2.com,619-170-3261
764,Livepath,Cincinnati,Ohio,45249,zjanusl7@unc.edu,513-436-1961
765,Voonyx,Jacksonville,Florida,32209,jgoronil8@state.tx.us,904-178-2142
766,Gevee,Honolulu,Hawaii,96825,kmckintoshl9@symantec.com,808-950-7594
767,Youspan,Jamaica,New York,11431,rkoschekla@ebay.com,212-783-6670
768,BlogXS,Mobile,Alabama,36605,dpascholb@homestead.com,251-669-1420
769,Pixope,Charleston,South Carolina,29424,ggimletlc@netscape.com,843-538-8972
770,Ntags,Los Angeles,California,90040,mbarensld@wikia.com,714-918-7195
771,Youfeed,Salt Lake City,Utah,84199,mklaassensle@sourceforge.net,801-188-5482
772,Thoughtworks,Arlington,Texas,76011,vmedgewicklf@deviantart.com,682-754-3791
773,Meemm,Orlando,Florida,32803,bandreasenlg@typepad.com,321-619-4264
774,Eadel,Corpus Christi,Texas,78470,nollelh@icio.us,361-306-4417
775,Pixoboo,Sacramento,California,94207,aewenceli@virginia.edu,916-457-5021
776,Photofeed,Madison,Wisconsin,53779,nperllj@hao123.com,608-159-1138
777,Gabvine,Lafayette,Louisiana,70593,adudenielk@typepad.com,337-548-5992
778,Yombu,Baton Rouge,Louisiana,70894,kcummingll@plala.or.jp,225-905-5074
779,Twitterbridge,Mobile,Alabama,36622,bcavilllm@hhs.gov,251-849-9458
780,Skivee,Hartford,Connecticut,06140,gguitonln@cafepress.com,860-244-2919
781,Oodoo,Warren,Ohio,44485,cruppello@hp.com,330-140-6402
782,Tazzy,Spokane,Washington,99210,arittmeyerlp@qq.com,509-288-2034
783,Oba,Santa Ana,California,92705,ffountainelq@hubpages.com,310-739-1427
784,Fivespan,San Diego,California,92105,ghinckesmanlr@house.gov,858-125-7434
785,Gabtune,Saint Louis,Missouri,63180,rcollynsls@paginegialle.it,314-978-1284
786,Kamba,Schaumburg,Illinois,60193,mdionisettilt@deviantart.com,847-551-7367
787,Tanoodle,Pasadena,California,91131,achiplinlu@springer.com,626-514-4469
788,Zoomzone,Daytona Beach,Florida,32128,asemperlv@xinhuanet.com,386-523-6396
789,Cogibox,Davenport,Iowa,52809,enareslw@google.fr,563-523-6690
790,Viva,Sacramento,California,94263,lkitchinhamlx@disqus.com,916-769-6373
791,Skivee,North Hollywood,California,91616,lphizakarleyly@1688.com,213-661-4369
792,Skyndu,Cincinnati,Ohio,45223,gbuxtonlz@squarespace.com,513-829-1966
793,Dynava,New Bedford,Massachusetts,02745,sstegellm0@msu.edu,508-470-9875
794,Yakitri,Washington,District of Columbia,20005,cbolstridgem1@rakuten.co.jp,202-955-1696
795,Shuffledrive,Miami,Florida,33124,kcarmenm2@twitter.com,786-299-6303
796,Yakidoo,Atlanta,Georgia,30306,mkraftm3@php.net,770-350-7722
797,Mynte,Omaha,Nebraska,68105,barghentm4@nydailynews.com,402-816-5951
798,Meemm,Washington,District of Columbia,20067,uinchcombm5@alexa.com,202-354-8196
799,Browsedrive,Charlotte,North Carolina,28256,npetzoldm6@toplist.cz,704-444-4820
800,Zoomcast,Chicago,Illinois,60697,bsynanm7@upenn.edu,312-916-0544
801,Topicshots,Austin,Texas,78789,marnoldsm8@bloglovin.com,512-166-4377
802,Zoomcast,Milwaukee,Wisconsin,53285,korgillm9@engadget.com,414-225-2239
803,Feedmix,Lexington,Kentucky,40576,mrockwillma@chron.com,859-948-5400
804,Muxo,Saint Paul,Minnesota,55115,mvasyutinmb@sogou.com,763-161-8736
805,Jaxbean,Tyler,Texas,75705,dkundertmc@cdc.gov,903-739-3426
806,Brainlounge,Topeka,Kansas,66642,ddonisimd@sitemeter.com,785-469-9330
807,Mynte,Terre Haute,Indiana,47805,cvanderbeekme@geocities.jp,812-408-3702
808,Topdrive,Lynn,Massachusetts,01905,otarbettmf@virginia.edu,781-658-1525
809,Riffwire,Norfolk,Virginia,23551,mpheasantmg@cornell.edu,757-368-2225
810,JumpXS,Denton,Texas,76210,npenticootmh@berkeley.edu,972-883-8453
811,Brainbox,Saint Louis,Missouri,63196,gbartaluccimi@feedburner.com,314-396-2856
812,Zava,Las Vegas,Nevada,89115,anerhenymj@123-reg.co.uk,702-903-7780
813,Meemm,Washington,District of Columbia,20370,gchristoforoumk@friendfeed.com,202-905-8155
814,Tambee,Charleston,West Virginia,25362,dcolstonml@guardian.co.uk,304-109-2347
815,Talane,Seattle,Washington,98195,sknotonmm@house.gov,206-670-1159
816,Divavu,Norfolk,Virginia,23509,wdoodsonmn@abc.net.au,757-184-8408
817,Realfire,Dayton,Ohio,45440,nochiltreemo@microsoft.com,937-151-2616
818,Vimbo,Portland,Maine,04109,rchadbournmp@yellowpages.com,207-531-9605
819,Mybuzz,San Antonio,Texas,78215,dgerrietzmq@printfriendly.com,210-651-2169
820,Wordify,Fresno,California,93721,sleggsmr@paginegialle.it,559-843-7539
821,Linkbuzz,Santa Ana,California,92705,tbaldinims@blinklist.com,310-236-3977
822,Vinder,Kansas City,Missouri,64153,wlaydelmt@about.com,816-955-3195
823,Trudeo,Newark,New Jersey,07195,dantrobusmu@tinyurl.com,862-686-4285
824,Wikido,Arlington,Texas,76096,bbeckinghammv@amazon.de,214-652-6415
825,Shufflester,North Hollywood,California,91616,iakastmw@moonfruit.com,213-642-9513
826,Roodel,Orange,California,92668,dwinterbornemx@state.tx.us,760-932-6517
827,Livefish,Lexington,Kentucky,40596,lbrismy@vinaora.com,859-756-3900
828,Mydo,Savannah,Georgia,31416,dnormanellmz@diigo.com,912-351-5756
829,Kwimbee,Baltimore,Maryland,21216,bflucksn0@comcast.net,410-585-1086
830,Trupe,San Bernardino,California,92415,mvanderkruisn1@infoseek.co.jp,909-513-1668
831,Voonix,Grand Rapids,Michigan,49544,atackettn2@goo.ne.jp,616-255-1478
832,Jaxspan,Gainesville,Georgia,30506,dfrounksn3@nba.com,678-257-2768
833,Kare,Savannah,Georgia,31410,vyuryichevn4@gmpg.org,912-207-9799
834,Zoonoodle,Montgomery,Alabama,36125,slattan5@mediafire.com,334-714-5686
835,Gabvine,Albany,New York,12262,mskallyn6@sun.com,518-274-5495
836,Brightbean,Erie,Pennsylvania,16534,apocknelln7@nature.com,814-672-0097
837,Zoonoodle,Los Angeles,California,90015,tgooddien8@biblegateway.com,213-372-1159
838,Katz,Merrifield,Virginia,22119,fsoffen9@wiley.com,571-824-5079
839,Yombu,Atlanta,Georgia,31132,adanielsohnna@ox.ac.uk,404-899-5994
840,Voonder,Huntsville,Alabama,35805,sgolsonnb@mail.ru,256-963-7217
841,Realcube,San Diego,California,92121,amaltmannc@yelp.com,760-186-9618
842,Trilia,Fort Lauderdale,Florida,33325,lmclaughlinnd@ezinearticles.com,954-243-8829
843,Tagfeed,Peoria,Illinois,61656,umoonne@ox.ac.uk,309-195-0784
844,Nlounge,Trenton,New Jersey,08650,lbeyernf@blogger.com,609-469-8310
845,Jaloo,Charleston,West Virginia,25336,bstoeckleng@histats.com,304-967-6151
846,Shuffletag,Buffalo,New York,14225,jwalshamnh@delicious.com,716-946-0346
847,DabZ,Des Moines,Iowa,50369,lchaineyni@businessinsider.com,515-441-4511
848,Innotype,Bismarck,North Dakota,58505,ewoolwardnj@trellian.com,701-586-1217
849,Vinte,Boca Raton,Florida,33432,alembckenk@intel.com,561-939-7297
850,Buzzshare,Lynchburg,Virginia,24503,fkattenhornnl@seattletimes.com,434-134-7482
851,Realmix,Littleton,Colorado,80161,jgreevesonnm@networksolutions.com,720-628-8723
852,Twitterwire,Oklahoma City,Oklahoma,73179,kheinzelnn@webeden.co.uk,405-418-2349
853,Youspan,Birmingham,Alabama,35254,phardmanno@flavors.me,205-890-4782
854,Yacero,Scottsdale,Arizona,85255,nkienlnp@instagram.com,480-764-4775
855,Photojam,Homestead,Florida,33034,jmyringnq@goo.gl,305-423-9790
856,Dabfeed,Los Angeles,California,90065,slillienr@slate.com,818-792-1118
857,Lazzy,Burbank,California,91505,rdmitrns@dailymotion.com,661-675-0648
858,Vimbo,Seattle,Washington,98175,dhestropnt@yale.edu,206-717-0952
859,Tagfeed,Buffalo,New York,14276,mstrodenu@deliciousdays.com,716-172-6751
860,Realpoint,Columbus,Mississippi,39705,gaphalenv@comcast.net,662-654-5678
861,Jatri,Pasadena,California,91125,svarrennw@nature.com,626-206-0796
862,Flipbug,Memphis,Tennessee,38136,zgebhardtnx@irs.gov,901-806-8308
863,Teklist,Des Moines,Iowa,50347,asargantny@goo.gl,515-461-5156
864,Trudoo,Boston,Massachusetts,02114,travilusnz@hud.gov,617-230-4343
865,Brainbox,Sioux Falls,South Dakota,57188,aelsmoreo0@ycombinator.com,605-439-7229
866,Brightdog,Jacksonville,Florida,32209,fgouneto1@webeden.co.uk,904-477-2860
867,Agimba,Washington,District of Columbia,20226,rfanthomeo2@1und1.de,202-103-7224
868,Geba,Colorado Springs,Colorado,80951,croulliero3@vk.com,719-352-6211
869,Yata,Van Nuys,California,91406,kmulrooneyo4@de.vu,323-858-9285
870,Demimbu,Brooklyn,New York,11247,cbeavingtono5@disqus.com,212-663-6583
871,Meembee,San Diego,California,92127,nswanneo6@rakuten.co.jp,619-933-9785
872,Skipfire,Hartford,Connecticut,06145,cpettitto7@vinaora.com,860-483-0777
873,Brainsphere,Anaheim,California,92805,nyieldingo8@apple.com,949-487-8421
874,Leexo,Milwaukee,Wisconsin,53225,mlevaneo9@shinystat.com,414-207-9121
875,Yata,Roanoke,Virginia,24040,bgreenanoa@google.com,540-578-4300
876,Katz,Lakewood,Washington,98498,cstillmannob@wikispaces.com,253-554-8107
877,Mybuzz,Charleston,South Carolina,29411,flamasnaoc@dmoz.org,843-700-9579
878,Meevee,Henderson,Nevada,89074,ojannawayod@merriam-webster.com,702-504-4896
879,Flashdog,Denver,Colorado,80249,dioanoe@canalblog.com,303-346-3520
880,Jabbersphere,Shreveport,Louisiana,71105,mleggof@mediafire.com,318-561-9116
881,Snaptags,New York City,New York,10045,sletchog@mashable.com,646-729-6946
882,Jabbercube,Fresno,California,93762,jlarretoh@netscape.com,559-156-9200
883,Trupe,Pueblo,Colorado,81005,meatttokoi@ustream.tv,719-902-6208
884,Skivee,Tampa,Florida,33625,dfoxwelloj@umn.edu,813-111-7028
885,Lazzy,Miami,Florida,33190,bpettitok@networksolutions.com,786-362-1889
886,Brightdog,Buffalo,New York,14220,sharfleetol@plala.or.jp,716-466-8459
887,Quamba,Saint Paul,Minnesota,55188,fwahlbergom@noaa.gov,651-758-7942
888,Blogtags,Washington,District of Columbia,20029,snorcockon@omniture.com,202-978-2529
889,Livetube,North Hollywood,California,91606,aadrianoo@senate.gov,323-118-1352
890,Meedoo,San Jose,California,95128,jhebbornop@vinaora.com,714-224-0972
891,Babblestorm,Manchester,New Hampshire,03105,dmcgloneoq@furl.net,603-144-1313
892,Camimbo,Flushing,New York,11355,hmckinstryor@tinypic.com,347-706-4046
893,Eayo,Albany,New York,12227,jkirckmanos@earthlink.net,518-739-7444
894,Quinu,Houston,Texas,77240,cseekingot@indiegogo.com,713-850-8215
895,Skiptube,Houston,Texas,77025,akohringou@alibaba.com,281-540-2473
896,Quinu,Saint Louis,Missouri,63116,rduggaryov@multiply.com,314-563-3532
897,Flashdog,New York City,New York,10275,chembrowow@myspace.com,212-735-7003
898,Eazzy,Huntington,West Virginia,25775,bantillox@boston.com,304-270-4035
899,Miboo,Sacramento,California,95852,loverstalloy@icio.us,916-666-6149
900,Thoughtbeat,Corona,California,92883,mstockilloz@ustream.tv,951-466-6340
901,Thoughtworks,Atlanta,Georgia,30340,hboamep0@vinaora.com,770-395-6890
902,Zoomlounge,San Antonio,Texas,78240,wbartellp1@nationalgeographic.com,210-225-7035
903,Voonte,Houston,Texas,77218,bpatrickp2@seattletimes.com,713-800-1763
904,Tagpad,Denver,Colorado,80270,mwillstropp3@mac.com,303-841-6705
905,Devshare,Monroe,Louisiana,71213,caulsfordp4@usatoday.com,318-286-4677
906,Buzzster,Greensboro,North Carolina,27404,scraufordp5@berkeley.edu,336-195-5020
907,Meetz,Montgomery,Alabama,36125,lparamorep6@pbs.org,334-181-8964
908,Wikizz,Jackson,Mississippi,39236,mfarnfieldp7@squarespace.com,601-155-7137
909,Blogpad,York,Pennsylvania,17405,fanchorp8@patch.com,717-559-0269
910,Edgepulse,Indianapolis,Indiana,46254,lreanyp9@foxnews.com,317-710-6161
911,Thoughtbeat,Phoenix,Arizona,85015,ssiddlepa@technorati.com,602-665-7922
912,Edgeify,Tampa,Florida,33694,cdinehartpb@elegantthemes.com,813-827-0083
913,Dablist,Sacramento,California,94250,fgoudardpc@stanford.edu,916-854-2100
914,DabZ,Long Beach,California,90840,dzambonpd@miitbeian.gov.cn,562-577-7467
915,Plambee,Palm Bay,Florida,32909,bjossepe@kickstarter.com,561-520-0236
916,Buzzdog,Fresno,California,93726,jclaypoolpf@smh.com.au,559-432-4944
917,Yombu,Lees Summit,Missouri,64082,rvenourpg@upenn.edu,816-602-9804
918,Jaxworks,Arlington,Virginia,22212,lmarcombeph@reverbnation.com,571-552-8162
919,Snaptags,Fort Wayne,Indiana,46852,jfullepi@webs.com,260-841-4953
920,Mycat,Tacoma,Washington,98405,stitchenpj@mozilla.org,253-177-3754
921,Leexo,Colorado Springs,Colorado,80920,llapthornepk@usda.gov,719-774-6800
922,Voonte,Indianapolis,Indiana,46278,ftumultypl@ocn.ne.jp,317-185-0741
923,Skibox,Toledo,Ohio,43656,obordespm@ucoz.ru,419-707-3165
924,Gigaclub,Oklahoma City,Oklahoma,73114,bspencelayhpn@cnbc.com,405-546-3360
925,Skiba,Columbia,South Carolina,29220,lblythingpo@pbs.org,803-294-7667
926,Edgepulse,Pensacola,Florida,32505,headepp@wisc.edu,850-773-1891
927,Reallinks,Athens,Georgia,30610,baxtellpq@tripadvisor.com,706-200-2646
928,Kwinu,Chattanooga,Tennessee,37450,hfidalpr@nytimes.com,423-348-3558
929,Photobean,Saint Louis,Missouri,63126,twornhamps@sitemeter.com,636-564-2208
930,Realbuzz,Virginia Beach,Virginia,23464,wdanskenpt@tripod.com,757-591-3698
931,Voolia,Columbus,Georgia,31904,icurmanpu@rambler.ru,706-358-4419
932,Feedfish,Philadelphia,Pennsylvania,19120,drabsonpv@cyberchimps.com,215-864-7267
933,Kaymbo,Charlotte,North Carolina,28205,ldreganpw@friendfeed.com,704-190-1930
934,Voonte,Akron,Ohio,44310,llahertypx@senate.gov,330-623-1621
935,Voonder,Montgomery,Alabama,36125,cparkynspy@ebay.co.uk,334-889-7590
936,Gigaclub,Albany,New York,12255,chenriquepz@jalbum.net,518-155-6569
937,Buzzdog,Daytona Beach,Florida,32118,ewhistlecraftq0@about.com,407-438-4885
938,Chatterpoint,Aurora,Colorado,80015,mdownieq1@flickr.com,303-724-1342
939,Cogibox,Scottsdale,Arizona,85271,lhirschmannq2@hexun.com,480-949-2309
940,Quire,San Diego,California,92105,aferreliq3@digg.com,858-711-6638
941,Buzzster,Boston,Massachusetts,02208,klisleq4@pbs.org,617-686-9607
942,Avavee,Palo Alto,California,94302,cdinnisq5@unesco.org,650-557-9561
943,Camimbo,Atlanta,Georgia,30340,omcveightyq6@merriam-webster.com,770-201-9585
944,Skinix,Richmond,Virginia,23289,ciczokvitzq7@webs.com,804-180-6296
945,Babbleopia,Louisville,Kentucky,40266,toleksiakq8@cpanel.net,502-148-8021
946,Centimia,Redwood City,California,94064,mpetranekq9@bloglines.com,650-514-5188
947,Tagtune,Mesa,Arizona,85205,mrippingaleqa@ft.com,480-683-0146
948,Voonix,Phoenix,Arizona,85015,eworlockqb@tripod.com,602-260-7097
949,Aivee,Topeka,Kansas,66629,kfishendenqc@statcounter.com,785-482-8940
950,Yoveo,Torrance,California,90510,rlightenqd@kickstarter.com,818-314-1896
951,Midel,Columbus,Ohio,43226,mguillondqe@blogs.com,614-268-8978
952,Wordify,Washington,District of Columbia,20397,owhittockqf@issuu.com,202-582-0541
953,Chatterbridge,Honolulu,Hawaii,96810,skloserqg@google.co.jp,808-821-1706
954,Snaptags,Pittsburgh,Pennsylvania,15230,mlibreyqh@adobe.com,412-379-8024
955,Jabbersphere,Evansville,Indiana,47732,jguinaneqi@ovh.net,812-834-1799
956,Lazz,Los Angeles,California,90040,etethcoteqj@hubpages.com,626-622-1662
957,Zoonder,Oklahoma City,Oklahoma,73167,hpurcellqk@wiley.com,405-564-5925
958,Einti,Baltimore,Maryland,21265,ssibrayql@cmu.edu,410-877-6827
959,Divanoodle,Honolulu,Hawaii,96820,bshafierqm@1688.com,808-227-6325
960,Twimm,Lynn,Massachusetts,01905,ccalvieqn@photobucket.com,617-636-0592
961,Realblab,Atlanta,Georgia,31106,lchetwyndqo@oaic.gov.au,404-636-7856
962,Quaxo,Washington,District of Columbia,20520,dskeelqp@abc.net.au,202-552-8692
963,Vitz,West Hartford,Connecticut,06127,mbelitzqq@disqus.com,860-852-8253
964,Kanoodle,Young America,Minnesota,55564,chankinqr@nytimes.com,952-522-9239
965,Eare,Columbia,South Carolina,29225,swinearqs@sakura.ne.jp,803-736-8575
966,Rooxo,Fort Wayne,Indiana,46805,mbernardinoqt@ihg.com,260-140-1103
967,Trudoo,Salt Lake City,Utah,84130,twhickmanqu@issuu.com,801-531-6386
968,Jabbersphere,Tacoma,Washington,98411,rdrakeqv@state.gov,253-891-3400
969,Aivee,Harrisburg,Pennsylvania,17121,hvooghtqw@mapquest.com,717-150-8859
970,Gevee,Austin,Texas,78754,mdinsaleqx@un.org,512-136-9850
971,Tagpad,Hartford,Connecticut,06105,cnewboldqy@xing.com,860-398-1461
972,Voonix,Redwood City,California,94064,emichielqz@sohu.com,650-833-1927
973,Jaloo,Grand Rapids,Michigan,49510,atomovicr0@unesco.org,616-344-0187
974,Mynte,Grand Rapids,Michigan,49518,cgwalterr1@nifty.com,616-588-0494
975,Myworks,Washington,District of Columbia,20470,ssalvatorer2@163.com,202-942-0214
976,Snaptags,Topeka,Kansas,66667,gprater3@technorati.com,785-913-9209
977,Zooxo,Miami,Florida,33175,cfoyler4@utexas.edu,305-924-6830
978,Twimm,Portsmouth,New Hampshire,03804,ffeatherstonehaughr5@artisteer.com,603-599-5948
979,Kamba,Las Vegas,Nevada,89105,mclaeskensr6@smh.com.au,702-596-6219
980,Jaxspan,Chicago,Illinois,60614,mderingtonr7@tripod.com,312-946-1395
981,Kwilith,Phoenix,Arizona,85025,ghatjer8@netlog.com,602-597-3993
982,Chatterbridge,Kansas City,Missouri,64101,bshearmanr9@shutterfly.com,816-646-0368
983,Mynte,Saginaw,Michigan,48604,kkaubischra@surveymonkey.com,989-816-0817
984,Wikido,Gilbert,Arizona,85297,gcrouserb@ebay.com,480-103-8700
985,Skiptube,Irving,Texas,75037,kcoglerc@mediafire.com,214-443-5491
986,Tagfeed,Charleston,West Virginia,25362,ltillerd@desdev.cn,304-825-2241
987,Livepath,Boston,Massachusetts,02163,byarnleyre@addtoany.com,339-856-7623
988,Twitternation,Anchorage,Alaska,99599,lbarkesrf@clickbank.net,907-596-5850
989,Camimbo,Midland,Texas,79705,jsimiolirg@feedburner.com,432-911-7228
990,Viva,Irving,Texas,75037,dbillitterirh@hugedomains.com,214-441-9010
991,Jaxworks,Lafayette,Louisiana,70505,mgallerri@g.co,337-169-0621
992,Divape,Louisville,Kentucky,40266,cgarriockrj@dell.com,502-231-0427
993,Leenti,Mobile,Alabama,36616,hcheeneyrk@yahoo.com,251-333-7985
994,Realbridge,Norfolk,Virginia,23551,atroucherrl@bing.com,757-144-6552
995,Realcube,Lexington,Kentucky,40581,bwooderrm@cpanel.net,859-872-6909
996,Zooveo,Saint Paul,Minnesota,55114,ghapperrn@microsoft.com,612-416-8009
997,Fivebridge,Honolulu,Hawaii,96820,bdoxeyro@army.mil,808-486-3237
998,Skiba,Pasadena,California,91186,bselmanrp@shutterfly.com,626-898-7976
999,Mita,San Diego,California,92176,tfallensrq@princeton.edu,619-530-8377
1000,Omba,Warren,Michigan,48092,opreistrr@eepurl.com,586-194-3048
